,Lat,Long,Venue_Type,Venue_Name,Created_On,latlong,Country
0,35.66191632,139.73509669999999,shopping,GCゆきざき (GC Yukizaki),1580182467,"(35.66191632, 139.73509669999999)",JP
1,35.66895489,139.761436,shopping,GCゆきざき (GC Yukizaki),1580182719,"(35.66895489, 139.761436)",JP
2,35.66335459,139.73295090000002,shopping,GCゆきざき Gem Castle (GC Yukizaki),1580182929,"(35.66335459, 139.73295090000002)",JP
3,35.66377299,139.7314435,shopping,GCゆきざき (GC Yukizaki),1580183013,"(35.66377299, 139.7314435)",JP
4,49.59568425,17.2501123,shopping,Marton's Work,1579299302,"(49.59568425, 17.2501123)",CZ
5,41.34153699,-73.90395641,sports,Gear Up Sports,1580512054,"(41.34153699, -73.90395641)",US
6,46.06041228,14.50686157,food,Žito trgovina,1582540407,"(46.06041228, 14.50686157)",SI
7,44.29054261,15.12107134,lodging,Apartments VIRIĆ,1582546911,"(44.29054261, 15.12107134)",HR
8,18.78568635,98.98180604,food,Boo Bar in Old City,1579342514,"(18.78568635, 98.98180604)",TH
9,46.40337459,7.777615276000001,lodging,Alpine-apartment.ch,1579361207,"(46.40337459, 7.777615276000001)",CH
10,49.20278359,16.62275434,default,DENKER US CARS,1579469497,"(49.20278359, 16.62275434)",CZ
11,44.49124379,11.32012904,shopping,Foto Impressioni,1580544933,"(44.49124379, 11.32012904)",IT
12,45.80774313,9.084877967999999,shopping,La Borsetta Como,1580928664,"(45.80774313, 9.084877967999999)",IT
13,44.48802158,11.33507431,lodging,B&B Central Avenue,1581435850,"(44.48802158, 11.33507431)",IT
14,46.03605146,14.47815657,default,Biljardnica Direkt Bar,1582031980,"(46.03605146, 14.47815657)",SI
15,45.77027705,18.87365341,attraction,Liberland,1578455787,"(45.77027705, 18.87365341)",HR
16,46.02234913,14.52408135,cafe,Bar Pr'Florjan,1582033267,"(46.02234913, 14.52408135)",SI
17,46.07562722,14.48318839,cafe,Kavarnica Golica,1582033502,"(46.07562722, 14.48318839)",SI
18,46.07546348,14.48332787,cafe,Breza caffe no.2,1582033657,"(46.07546348, 14.48332787)",SI
19,46.05889726,14.49713051,cafe,Mini Cafe Golf,1582034857,"(46.05889726, 14.49713051)",SI
20,46.05117632,14.43900168,sports,Škulj Tenis Center,1582037539,"(46.05117632, 14.43900168)",SI
21,46.0512061,14.43913043,sports,Indoor Golf Ljubljana,1582032482,"(46.0512061, 14.43913043)",SI
22,46.05034608,14.51449513,cafe,Bar Mesto,1582038870,"(46.05034608, 14.51449513)",SI
23,46.07944146,14.51160908,cafe,Kava Bar Komiža,1582039291,"(46.07944146, 14.51160908)",SI
24,46.03978279,14.47129548,cafe,Kavarna Square 118,1582040362,"(46.03978279, 14.47129548)",SI
25,46.07176061,14.48695958,cafe,Rendez Vous Bar,1582040595,"(46.07176061, 14.48695958)",SI
26,46.06344221,14.49410498,cafe,Bolero Bar,1582041462,"(46.06344221, 14.49410498)",SI
27,46.13776836,14.59836245,default,A1 Domžale,1582041718,"(46.13776836, 14.59836245)",SI
28,4.35936107,-75.73855519,food,La Barra,1582074892,"(4.35936107, -75.73855519)",CO
29,46.21004914,13.21299613,default,Pizzeria Aria 5,1582237751,"(46.21004914, 13.21299613)",IT
30,46.86426611,15.21652579,sports,Divers Destination KG,1578080347,"(46.86426611, 15.21652579)",AT
31,37.39578784,-6.000975966,lodging,APARTMENTS SEVILLE CENTER,1578162579,"(37.39578784, -6.000975966)",ES
32,37.39449224,-5.991953015,lodging,DESIGN APARTMENT SEVILLE CENTER,1578162736,"(37.39449224, -5.991953015)",ES
33,45.28345498,8.758522868,sports,Centro Ippico ASD Stella,1578162917,"(45.28345498, 8.758522868)",IT
34,43.08851041,12.45836735,shopping,Filippo Angeloni Consulente Finanziario,1578579652,"(43.08851041, 12.45836735)",IT
35,39.59059276,-0.4586952925,default,Maxcolchon,1578584976,"(39.59059276, -0.4586952925)",ES
36,39.67344058,-0.2485924959,default,Maxcolchon,1578590548,"(39.67344058, -0.2485924959)",ES
37,45.54961016,-73.67165565,atm,Bitcoin ATM @ Dépanneur Le Service,1578659472,"(45.54961016, -73.67165565)",CA
38,55.70454354,37.42374659,transport,Parustrans International Movers,1578700145,"(55.70454354, 37.42374659)",RU
39,-27.49188385,-58.92713428,food,GRAIN Trader Argentina,1578789087,"(-27.49188385, -58.92713428)",AR
40,28.67859188,-13.93785238,shopping,Gusty,1578789442,"(28.67859188, -13.93785238)",ES
41,55.70521456,37.426579,default,Abroadly-expert,1578734263,"(55.70521456, 37.426579)",RU
42,41.27089617,31.43487811,shopping,Caner Akvaryum & Petshop,1578814347,"(41.27089617, 31.43487811)",TR
43,29.72082765,-95.30900896,default,BereshkaWeb,1578763787,"(29.72082765, -95.30900896)",US
44,26.21856622,127.6878047,trezor retailer,PORTAANDGATE,1578819804,"(26.21856622, 127.6878047)",JP
45,10.99325585,-74.80584919,default,brothertattoos,1578858209,"(10.99325585, -74.80584919)",CO
46,11.00385081,-74.82576728,default,SEXOFANTASIAS,1578858677,"(11.00385081, -74.82576728)",CO
47,9.215166948,-66.00011945,food,EL LLANERITO,1578939667,"(9.215166948, -66.00011945)",VE
48,45.45174311,-92.45400131,default,mybookillustrator.com,1578952111,"(45.45174311, -92.45400131)",US
49,42.93404771,-72.27854848,default,KD Prestige Detailing,1579051403,"(42.93404771, -72.27854848)",US
50,44.29806832,15.08268356,lodging,Apartments Resort Jadro Mira,1579051972,"(44.29806832, 15.08268356)",HR
51,44.30167724,15.06156921,lodging,VILLA MIRA,1579052122,"(44.30167724, 15.06156921)",HR
52,7.739045844,98.76982457,atm,Exchange,1579058876,"(7.739045844, 98.76982457)",TH
53,44.30276755,15.09813309,lodging,Apartments PLEŠA,1579105818,"(44.30276755, 15.09813309)",HR
54,44.88652599,37.32467651,lodging,Zeleniy mir,1579112021,"(44.88652599, 37.32467651)",RU
55,10.06824835,-69.28510666,default,Cripto Tesch,1579195308,"(10.06824835, -69.28510666)",VE
56,49.73886538,13.38921726,shopping,pvatelier.cz,1579242682,"(49.73886538, 13.38921726)",CZ
57,44.48180244,11.36725008,lodging,B&BO la Frasca,1579273458,"(44.48180244, 11.36725008)",IT
58,-34.60303796,-58.37520003,atm,Transfer Express,1579278691,"(-34.60303796, -58.37520003)",AR
59,42.93143979,-72.27610229999999,food,EuPHOria,1579498348,"(42.93143979, -72.27610229999999)",US
60,48.27496039,13.88853192,default,Zwei Fach,1579617131,"(48.27496039, 13.88853192)",AT
61,48.29008918,14.29793358,shopping,Goldunion,1579617271,"(48.29008918, 14.29793358)",AT
62,48.04147626,14.42591786,sports,MANDU Steyr,1579618093,"(48.04147626, 14.42591786)",AT
63,47.98530447,14.12093997,default,Elektro Staudinger,1579618778,"(47.98530447, 14.12093997)",AT
64,48.30161661,14.29195225,default,Xu-Wok & More,1579619053,"(48.30161661, 14.29195225)",AT
65,48.29859761,14.29002106,default,Textilreinigung Pilz,1579619395,"(48.29859761, 14.29002106)",AT
66,-33.41958135,-70.60901821,shopping,SMARTCTL,1579642171,"(-33.41958135, -70.60901821)",CL
67,40.08480277,-75.25939465,default,"Team Economics, LLC",1579714154,"(40.08480277, -75.25939465)",US
68,40.08715858,-82.98439801,atm,Bitcoin ATM,1579209809,"(40.08715858, -82.98439801)",US
69,45.81326216,15.99782109,food,Jellyfish in Space,1579775539,"(45.81326216, 15.99782109)",HR
70,42.93109023,-72.28055477,default,Pure Bliss Cleaning Service,1579662570,"(42.93109023, -72.28055477)",US
71,41.36400671,-82.10383415,atm,Bitcoin ATM,1579725435,"(41.36400671, -82.10383415)",US
72,37.9329183,-77.47756541,atm,Bitcoin ATM,1579993187,"(37.9329183, -77.47756541)",US
73,36.80708566,-77.46315122,atm,Bitcoin ATM,1579993601,"(36.80708566, -77.46315122)",US
74,55.35779476,86.16631866,default,"Green Gorillaz | Fitness club ""Leningradsky""",1579860541,"(55.35779476, 86.16631866)",RU
75,55.40193159,86.01482749,default,"Green Gorillaz | Fitness club ""Kirovsky""",1579860669,"(55.40193159, 86.01482749)",RU
76,-19.90799913,-43.94433618,default,RF Engenharia,1579812211,"(-19.90799913, -43.94433618)",BR
77,55.74825966,37.53720939,food,M-CITY resto grill bar,1579782380,"(55.74825966, 37.53720939)",RU
78,55.79410425,37.59196401,shopping,"ZEONDIGITAL | Shop ""Sound Arena""",1579855805,"(55.79410425, 37.59196401)",RU
79,55.76356428,37.654411200000006,cafe,Tsifra | Cafeteria,1579856026,"(55.76356428, 37.654411200000006)",RU
80,55.76150892,37.55155921,shopping,DomDomych.ru | Retail sale of goods for the interior of your home,1579856199,"(55.76150892, 37.55155921)",RU
81,55.69913869,37.35892296,shopping,Gift LAB SKOLKOVO | Souvenir shop,1579856845,"(55.69913869, 37.35892296)",RU
82,55.74649638,37.68264413,default,Flagman | Travel agency,1579858441,"(55.74649638, 37.68264413)",RU
83,55.77731219,37.50428796,shopping,AGENTORY | Real estate agency,1579858589,"(55.77731219, 37.50428796)",RU
84,55.73296414,37.61937082,default,APARTMENT HOTEL | Management Company,1579859581,"(55.73296414, 37.61937082)",RU
85,55.83538547,37.93593049,default,ZOOCLINIC & ZOOMARKET PETGROUP | Veterinary services and pet products,1579859899,"(55.83538547, 37.93593049)",RU
86,55.32953501,86.11461639,default,"Green Gorillaz | Fitness club ""FPK""",1579860154,"(55.32953501, 86.11461639)",RU
87,55.40347893,86.11931562,default,"Green Gorillaz | Fitness club ""Raduga""",1579860421,"(55.40347893, 86.11931562)",RU
88,42.93110987,-72.28070498,attraction,Free Talk Live & LRN.FM,1579995868,"(42.93110987, -72.28070498)",US
89,38.75707015,-9.303917885,shopping,Zumub,1580115799,"(38.75707015, -9.303917885)",PT
90,44.55128897,38.05438757,shopping,"Roberto Bravo at the ""Grand Hotel Kempinski Gelendzhik""",1580123940,"(44.55128897, 38.05438757)",RU
91,43.68385663,40.25694251,shopping,"Roberto Bravo at the ""Sochi Hotel Marriott Krasnaya Polyana"" | Jewelry",1580124190,"(43.68385663, 40.25694251)",RU
92,43.58460705,39.71697628,shopping,"Roberto Bravo in the TG ""Grand Marina"" | Jewelry",1580124295,"(43.58460705, 39.71697628)",RU
93,43.60631284,39.73237753,shopping,"Roberto Bravo in ""MoreMall"" shopping center | Jewelry",1580124388,"(43.60631284, 39.73237753)",RU
94,43.57068667,39.73215759,shopping,"Roberto Bravo at the ""Grand Hotel Zhemchuzhina"" | Jewelry",1580125167,"(43.57068667, 39.73215759)",RU
95,39.17993194,-77.26604104,atm,Bitcoin ATM,1580166364,"(39.17993194, -77.26604104)",US
96,50.1420875,14.09891903,shopping,Žaluzie a sítě do oken,1580398421,"(50.1420875, 14.09891903)",CZ
97,-32.90887456,-68.82547259,grocery,El Mercadito,1580694288,"(-32.90887456, -68.82547259)",AR
98,-32.86481869,-68.94600078,lodging,Tangram Cabañas,1580694466,"(-32.86481869, -68.94600078)",AR
99,-32.85392235,-68.82724285,default,El Taller de Pianos,1580694583,"(-32.85392235, -68.82724285)",AR
100,45.44171331,9.287272096,food,Bottega Verace,1580713619,"(45.44171331, 9.287272096)",IT
101,50.16727782,19.39807892,default,"BlueSun - Zasilanie Awaryjne, Usługi Elektryczne",1580816106,"(50.16727782, 19.39807892)",PL
102,41.44799402,-82.16567516,atm,Bitcoin ATM,1580396903,"(41.44799402, -82.16567516)",US
103,44.48961357,11.31511331,shopping,"Copisteria ""Il Copione""",1580825991,"(44.48961357, 11.31511331)",IT
104,44.50226378,11.33241892,atm,Bitshop,1580826702,"(44.50226378, 11.33241892)",IT
105,27.33634257,-82.53165185,atm,Bitcoin Center,1580829907,"(27.33634257, -82.53165185)",US
106,49.2073364,16.48464203,default,Petr Krzok,1581067101,"(49.2073364, 16.48464203)",CZ
107,39.12456716,-84.34716403,atm,Bitcoin ATM,1579209680,"(39.12456716, -84.34716403)",US
108,-32.89249559,-68.85440638,food,The Sixth Dagger ,1581105251,"(-32.89249559, -68.85440638)",AR
109,-32.88538506,-68.84145856,food,Parrilla del Mercado,1581111683,"(-32.88538506, -68.84145856)",AR
110,44.43997729,8.96784246,shopping,Centroinfissi EGI,1581188370,"(44.43997729, 8.96784246)",IT
111,48.189361700000006,16.36446297,default,Psychologische Praxis | Mag. Daniel Prattinger,1581215436,"(48.189361700000006, 16.36446297)",AT
112,35.96244609,-115.09689329999999,default,Drone2Address,1581348554,"(35.96244609, -115.09689329999999)",US
113,36.1212369,-115.2788544,default,Drone2Address,1581348578,"(36.1212369, -115.2788544)",US
114,36.25147202,-115.2088165,default,Drone2Address,1581348601,"(36.25147202, -115.2088165)",US
115,35.990464200000005,-115.18545990000001,default,Heart of Gold Child Care,1581348671,"(35.990464200000005, -115.18545990000001)",US
116,36.02628197,-115.088675,default,Colocation Vegas,1581348760,"(36.02628197, -115.088675)",US
117,36.02688935,-115.0890827,default,702Ring,1581348797,"(36.02688935, -115.0890827)",US
118,25.75815531,-80.21289825,default,Ring305,1581348882,"(25.75815531, -80.21289825)",US
119,36.06589081,-115.20203590000001,default,702Ring,1581349650,"(36.06589081, -115.20203590000001)",US
120,35.98897976,-115.18909690000001,default,Drone2Address,1581348507,"(35.98897976, -115.18909690000001)",US
121,-34.55566396,-58.41533661,atm,BlockLabs P2P BTC to ARS,1581386980,"(-34.55566396, -58.41533661)",AR
122,-34.81260535,-58.53906155,atm,BlockLabs P2P BTC to ARS,1581387252,"(-34.81260535, -58.53906155)",AR
123,-34.66583773,-58.64275575,atm,BlockLabs P2P BTC to ARS,1581387449,"(-34.66583773, -58.64275575)",AR
124,-17.78885791,-63.19588846,shopping,David A. Justiniano,1581468722,"(-17.78885791, -63.19588846)",BO
125,10.47662911,-84.96414185,lodging,Hotel Cielo Azul Resort,1581473830,"(10.47662911, -84.96414185)",CR
126,48.15399776,14.01073873,default,PT – Built By Experience,1581497974,"(48.15399776, 14.01073873)",AT
127,44.3081881,15.080054999999998,lodging,Aparmán Verne,1581530750,"(44.3081881, 15.080054999999998)",HR
128,44.30131636,15.09296179,lodging,Apartman BARBA,1581531031,"(44.30131636, 15.09296179)",HR
129,48.85487515,2.304232121,default,Nicolas Mildner,1581543077,"(48.85487515, 2.304232121)",FR
130,46.05480983,14.50513422,shopping,Zlatarstvo Kodre,1581675958,"(46.05480983, 14.50513422)",SI
131,37.09945220000001,27.30793476,shopping,DEEP PERDE,1581676634,"(37.09945220000001, 27.30793476)",TR
132,4.829751107,-75.67335069,default,DogeLino,1581685237,"(4.829751107, -75.67335069)",CO
133,20.58811681,-100.3750956,shopping,Fama Sport,1581727325,"(20.58811681, -100.3750956)",MX
134,20.01645495,-75.83085537,transport,Mr. Eridanys,1581869000,"(20.01645495, -75.83085537)",CU
135,20.02072353,-75.82510769,default,Fernando Lainati Mora,1581893572,"(20.02072353, -75.82510769)",CU
136,-37.14828528,-56.88095212,lodging,Cabañas El Jardín,1581946699,"(-37.14828528, -56.88095212)",AR
137,47.16717476,8.514876366000001,food,Löwen Brasserie,1581948948,"(47.16717476, 8.514876366000001)",CH
138,47.16716747,8.514989018,lodging,Hotel Löwen,1581949253,"(47.16716747, 8.514989018)",CH
139,-16.68383258,-49.26763594,default,Nexus Class,1581964597,"(-16.68383258, -49.26763594)",BR
140,46.18043955,8.998253345,shopping,Mediasat Sagl,1581971677,"(46.18043955, 8.998253345)",CH
141,50.0811192,14.42445832,default,Flower shop KvetinySandra,1581973138,"(50.0811192, 14.42445832)",CZ
142,44.29238189,15.11988044,lodging,Apartments Ivuša,1579051789,"(44.29238189, 15.11988044)",HR
143,46.02337348,14.41772103,lodging,Hotel Pok,1582017266,"(46.02337348, 14.41772103)",SI
144,46.02334368,14.4178766,food,Restavracija Kevder,1582017473,"(46.02334368, 14.4178766)",SI
145,46.04844357,14.49967325,cafe,Living Room Lounge,1582017696,"(46.04844357, 14.49967325)",SI
146,46.05247562,14.50503767,default,Elegance Showroom,1582018250,"(46.05247562, 14.50503767)",SI
147,46.05224108,14.50844407,shopping,Saloon Concept,1582018744,"(46.05224108, 14.50844407)",SI
148,46.08213918,14.50648069,default,Nova ključavnica,1582019053,"(46.08213918, 14.50648069)",SI
149,46.07323063,14.50387359,default,The Coffee,1582020273,"(46.07323063, 14.50387359)",SI
150,46.03609987,14.47817266,default,Biljard klub Direkt,1582031814,"(46.03609987, 14.47817266)",SI
151,44.29031989,15.1202774,lodging,Apartman VLADEK,1581982211,"(44.29031989, 15.1202774)",HR
152,37.875072100000004,-122.260379,default,Metz Construction,1581809469,"(37.875072100000004, -122.260379)",US
153,46.20869414,6.131942867999999,atm,Le Kiosque de l'ile verte,1582136407,"(46.20869414, 6.131942867999999)",CH
154,46.21063939,6.14566505,atm,La Miroiterie Café ,1582136599,"(46.21063939, 6.14566505)",CH
155,-29.36333093,-50.81353784,atm,Bitcoin - câmbio - exchange,1582136948,"(-29.36333093, -50.81353784)",BR
156,33.49226937,-88.79059196,default,Redeemer Church,1582144045,"(33.49226937, -88.79059196)",US
157,-37.87265549,145.0251608,default,Healing Delight,1582268558,"(-37.87265549, 145.0251608)",AU
158,46.08708404,14.47852671,cafe,Fani bar,1582290849,"(46.08708404, 14.47852671)",SI
159,45.59446175,10.15372753,cafe,Caffè Danesi,1582291353,"(45.59446175, 10.15372753)",IT
160,46.40574408,14.15445685,cafe,"Zavrh bar, V objemu narave",1582292257,"(46.40574408, 14.15445685)",SI
161,46.04797818,14.54445004,food,Sarajevska čevabdžinica Deset v pol,1582293600,"(46.04797818, 14.54445004)",SI
162,46.06177465,14.57323015,cafe,Kava bar Petrol,1582293745,"(46.06177465, 14.57323015)",SI
163,46.02124654,14.52299774,food,Gostilna in pizzeria KUBUS,1582294011,"(46.02124654, 14.52299774)",SI
164,-5.865909275,-35.20172417,default,Leal e Lima Sociedade de Advogados,1582321495,"(-5.865909275, -35.20172417)",BR
165,46.05667118,14.50586915,food,Žito trgovina,1582551322,"(46.05667118, 14.50586915)",SI
166,46.06510599,14.511319400000001,food,Žito trgovina,1582551483,"(46.06510599, 14.511319400000001)",SI
167,46.05499225,14.50881422,food,Žito trgovina,1582551780,"(46.05499225, 14.50881422)",SI
168,46.0580597,14.51148033,food,Žito trgovina,1582552020,"(46.0580597, 14.51148033)",SI
169,46.05061414,14.50929165,food,Žito Kruharna,1582552926,"(46.05061414, 14.50929165)",SI
170,46.05397221,14.51277852,food,Žito trgovina,1582553127,"(46.05397221, 14.51277852)",SI
171,46.05516349,14.50848162,food,Žito trgovina,1582553289,"(46.05516349, 14.50848162)",SI
172,46.05115026,14.50719416,food,Žito trgovina,1582553552,"(46.05115026, 14.50719416)",SI
173,46.04146963,14.47512031,food,Žito trgovina,1582556263,"(46.04146963, 14.47512031)",SI
174,46.07379257,14.47453022,food,Žito trgovina,1582559271,"(46.07379257, 14.47453022)",SI
175,46.05772839,14.50967789,food,Žito trgovina,1582559393,"(46.05772839, 14.50967789)",SI
176,46.06440251,14.54421401,food,Žito trgovina,1582559522,"(46.06440251, 14.54421401)",SI
177,42.34030291,-83.1276387,grocery,Livernois-Mcgraw Market,1582563066,"(42.34030291, -83.1276387)",US
178,4.697654255,-74.03051376,lodging,Hostal Casa Andina Usaquen,1582593045,"(4.697654255, -74.03051376)",CO
179,50.13466432,14.17648315,default,EDGAR GONZALEZ ASESOR,1582578076,"(50.13466432, 14.17648315)",CZ
180,5.084323847,-73.78861606,lodging,Hostal Casa Andina Suesca,1582595839,"(5.084323847, -73.78861606)",CO
181,50.82962509,4.048043488999999,default,Veronove Tegels,1582722893,"(50.82962509, 4.048043488999999)",BE
182,3.3689714669999997,-76.51484013,shopping,ReGia Makeup ,1582771425,"(3.3689714669999997, -76.51484013)",CO
183,50.10255159,14.46798563,transport,Iva Testuje,1582797374,"(50.10255159, 14.46798563)",CZ
184,51.39698332,12.39884377,attraction,CCC,1582807921,"(51.39698332, 12.39884377)",DE
185,41.70423867,-83.52696061,atm,Bitcoin ATM,1582568749,"(41.70423867, -83.52696061)",US
186,47.43265611,8.556981683,shopping,COIN.HOST,1582814361,"(47.43265611, 8.556981683)",CH
187,4.807824043,-75.69157362,atm,BancaBIT,1582831335,"(4.807824043, -75.69157362)",CO
188,-17.74582554,-63.191862699999994,shopping,Widen Montero,1582831372,"(-17.74582554, -63.191862699999994)",BO
189,50.41489999,30.52226186,atm,Colipay,1582847874,"(50.41489999, 30.52226186)",UA
190,45.55704409,18.70507658,cafe,Campus Caffe,1582889979,"(45.55704409, 18.70507658)",HR
191,4.698575566000001,-74.03131652,default,Crisol (Elizabeth Gómez y David Palacio),1582899763,"(4.698575566000001, -74.03131652)",CO
192,39.92924588,-77.63810098,atm,Bitcoin ATM,1582916508,"(39.92924588, -77.63810098)",US
193,4.6166730419999995,-74.19792652,shopping,BITCOIN-TRAXALT,1582914988,"(4.6166730419999995, -74.19792652)",CO
194,6.229235122,-75.57080984,atm,Genesis Block,1582941084,"(6.229235122, -75.57080984)",CO
195,45.81036062,15.97420156,attraction,Museum of Hangovers,1582997640,"(45.81036062, 15.97420156)",HR
196,33.89663713,-117.99453740000001,default,Tandy Consulting Inc,1583037774,"(33.89663713, -117.99453740000001)",US
197,49.18825641,-123.9502523,default,Ripsen Marine,1583054136,"(49.18825641, -123.9502523)",CA
198,50.08048052,14.44864154,default,PHP Programming Mentoring,1583152192,"(50.08048052, 14.44864154)",CZ
199,41.96819905,-87.80741221,default,American Speedy Printing,1583157255,"(41.96819905, -87.80741221)",US
200,42.35202676,-3.660678864,default,pepeton,1583169950,"(42.35202676, -3.660678864)",ES
201,-27.28609007,-48.89581203,food,CoguVale,1583173969,"(-27.28609007, -48.89581203)",BR
202,46.42374793,15.88532925,default,Tomas Sport Ptuj,1583228669,"(46.42374793, 15.88532925)",SI
203,46.40301414,15.5337131,lodging,Panorama Glamping Visole,1583230263,"(46.40301414, 15.5337131)",SI
204,46.1365008,14.4133383,cafe,Parkplac Drive in,1583231323,"(46.1365008, 14.4133383)",SI
205,46.36098241,15.10720968,default,ILON center masaž in terapij,1583231844,"(46.36098241, 15.10720968)",SI
206,46.35940161,15.10875463,default,Šola vožnje RELAX Velenje,1583232096,"(46.35940161, 15.10875463)",SI
207,46.33620636,14.95862067,default,Šola vožnje RELAX Mozirje,1583232767,"(46.33620636, 14.95862067)",SI
208,46.09963209,14.53668237,default,MGS PLUS,1583239507,"(46.09963209, 14.53668237)",SI
209,46.06389258,14.54567313,default,"Kalček Ljubljana, BTC",1583239905,"(46.06389258, 14.54567313)",SI
210,46.22524876,14.61165011,cafe,Kavarna Veronika,1583240415,"(46.22524876, 14.61165011)",SI
211,46.22412054,14.61077034,food,Pizzeria Napoli,1583240587,"(46.22412054, 14.61077034)",SI
212,45.94318988,13.642069099999999,default,AcuModerna,1583240847,"(45.94318988, 13.642069099999999)",SI
213,45.53972177,13.66428852,default,Navtik. AL,1583241149,"(45.53972177, 13.66428852)",SI
214,46.05040565,14.52680111,default,List biro oprema d.o.o.,1583242448,"(46.05040565, 14.52680111)",SI
215,46.11016534,14.60952044,default,Lazy Koala,1583243214,"(46.11016534, 14.60952044)",SI
216,46.02030038,14.53950405,default,Eset Online store,1583243682,"(46.02030038, 14.53950405)",SI
217,39.68570666,-84.22146499,atm,Bitcoin ATM,1583276295,"(39.68570666, -84.22146499)",US
218,10.382319099999998,-75.47966838,food,Ay Jue’ Pollo,1583291064,"(10.382319099999998, -75.47966838)",CO
219,55.762682999999996,37.59230196,food,800°С Contemporary Steak | Meat restaurant,1583315944,"(55.762682999999996, 37.59230196)",RU
220,55.75021609,37.55966485,food,Village restaurant Arkadiya Novikovа | Cheese factory at the Badayevsky plant,1583315761,"(55.75021609, 37.55966485)",RU
221,55.74706704,37.53650665,cafe,FORNETTO | Cafe pizzeria,1583316153,"(55.74706704, 37.53650665)",RU
222,55.66672112,37.62042224,cafe,Coffee Industry | Catering company,1583316398,"(55.66672112, 37.62042224)",RU
223,37.18653586,126.65144209999998,cafe,Romance Yacht,1583379466,"(37.18653586, 126.65144209999998)",KR
224,47.17262319,8.513261676,food,Kurioz Bar & Kitchen,1583417098,"(47.17262319, 8.513261676)",CH
225,50.080515500000004,14.449227599999999,food,U Sadu,1578930109,"(50.080515500000004, 14.449227599999999)",CZ
226,46.0931109,11.1121903,default,La selleria on line,1582221225,"(46.0931109, 11.1121903)",IT
227,43.7198484,10.397295100000001,atm,?,1580855888,"(43.7198484, 10.397295100000001)",IT
228,32.0641293,34.7735345,atm,רובוקוין,1583428892,"(32.0641293, 34.7735345)",IL
229,50.0884875,14.396167499999999,cafe,U zelených kamen,1578929305,"(50.0884875, 14.396167499999999)",CZ
230,46.0823409,14.5137728,atm,Bitnik 2-way bitcoin ATM,1583429046,"(46.0823409, 14.5137728)",SI
231,45.5399021,13.7351245,atm,Bitnik 1-way bitcoin ATM,1583429085,"(45.5399021, 13.7351245)",SI
232,41.2126346,9.3880341,lodging,Ma & Ma Grand Hotel Resort,1582986673,"(41.2126346, 9.3880341)",IT
233,61.497554799999996,23.7771771,atm,Bittimaatti Two-Way,1583429144,"(61.497554799999996, 23.7771771)",FI
234,33.7445484,-84.3686163,atm,Athena Bitcoin ATM,1583429145,"(33.7445484, -84.3686163)",US
235,33.7727707,-84.37853879999999,atm,Athena Bitcoin ATM,1583429145,"(33.7727707, -84.37853879999999)",US
236,43.4677367,-80.5233263,atm,Bitcoin ATM,1583429155,"(43.4677367, -80.5233263)",CA
237,23.730424499999998,90.41206020000001,default,বাকাউল মানি এক্সচেঞ্জ,1583429156,"(23.730424499999998, 90.41206020000001)",BD
238,47.1390768,7.2453205,default,Zahnarztpraxis Dr. Matthias Nötzel ,1582559517,"(47.1390768, 7.2453205)",CH
239,44.079525200000006,10.0996256,default,Le profumerie Braccini,1580456875,"(44.079525200000006, 10.0996256)",IT
240,48.204798,16.3703636,atm,?,1583429226,"(48.204798, 16.3703636)",AT
241,48.4269856,-123.3675538,atm,Bitcoin ATM,1583429232,"(48.4269856, -123.3675538)",CA
242,48.4242489,-123.3631831,atm,Bitcoin ATM,1583429233,"(48.4242489, -123.3631831)",CA
243,45.8836233,8.5408137,shopping,Gioielleri Paulon,1578338791,"(45.8836233, 8.5408137)",IT
244,49.182761299999996,16.627017600000002,atm,?,1583429262,"(49.182761299999996, 16.627017600000002)",CZ
245,50.0770759,8.2370224,shopping,Meyni Textil Stickerei Schneiderei Textildruck,1582223184,"(50.0770759, 8.2370224)",DE
246,45.4274276,-75.6902342,atm,?,1583429286,"(45.4274276, -75.6902342)",CA
247,45.4269373,-75.68969240000001,atm,?,1583429287,"(45.4269373, -75.68969240000001)",CA
248,47.2605377,11.382715300000001,atm,?,1583429294,"(47.2605377, 11.382715300000001)",AT
249,47.27016210000001,11.391088400000001,atm,?,1583429295,"(47.27016210000001, 11.391088400000001)",AT
250,47.2557425,11.326362,atm,?,1583429295,"(47.2557425, 11.326362)",AT
251,48.7196925,21.261181699999998,atm,Bitcoin ATM,1583429315,"(48.7196925, 21.261181699999998)",SK
252,62.2434448,25.748279,atm,Bittimaatti Two-Way,1583429370,"(62.2434448, 25.748279)",FI
253,62.86433960000001,27.613253000000004,atm,Bittimaatti Two-Way,1583429371,"(62.86433960000001, 27.613253000000004)",FI
254,31.7670985,35.2255151,atm,כספומט ביטקוין,1583429386,"(31.7670985, 35.2255151)",IL
255,43.719849200000006,10.3973451,cafe,Pasticceria DolcePisa,1580853413,"(43.719849200000006, 10.3973451)",IT
256,40.51105870000001,-88.9819592,atm,Cryptocurrency Atm,1583429469,"(40.51105870000001, -88.9819592)",US
257,40.7883618,-73.94724129999999,atm,Bitcoin ATM,1583429470,"(40.7883618, -73.94724129999999)",US
258,40.076826399999995,-75.15957929999999,atm,Athena Bitcoin ATM,1583429475,"(40.076826399999995, -75.15957929999999)",US
259,33.7571288,-84.165897,atm,Athena Bitcoin ATM,1583429475,"(33.7571288, -84.165897)",US
260,39.953031200000005,-75.2580463,atm,Athena Bitcoin ATM,1583429476,"(39.953031200000005, -75.2580463)",US
261,33.7239937,-84.49980959999999,atm,Athena Bitcoin ATM,1583429476,"(33.7239937, -84.49980959999999)",US
262,33.6817963,-84.4139692,atm,Athena Bitcoin Inc.,1583429477,"(33.6817963, -84.4139692)",US
263,38.63617120000001,-90.24691949999999,atm,Athena Bitcoin ATM,1583429477,"(38.63617120000001, -90.24691949999999)",US
264,27.936817200000004,-82.3690265,atm,Athena Bitcoin ATM,1583429478,"(27.936817200000004, -82.3690265)",US
265,25.9267495,-80.1445471,atm,Athena Bitcoin ATM,1583429478,"(25.9267495, -80.1445471)",US
266,39.9868967,-75.1563595,atm,Athena Bitcoin ATM,1583429478,"(39.9868967, -75.1563595)",US
267,27.972613399999997,-82.45101690000001,atm,Athena Bitcoin ATM,1583429478,"(27.972613399999997, -82.45101690000001)",US
268,38.5671016,-90.4947265,atm,Athena Bitcoin ATM,1583429479,"(38.5671016, -90.4947265)",US
269,33.61687379999999,-84.47217979999999,atm,Athena Bitcoin ATM,1583429480,"(33.61687379999999, -84.47217979999999)",US
270,33.8218526,-84.36695440000001,atm,Athena Bitcoin ATM,1583429481,"(33.8218526, -84.36695440000001)",US
271,40.0387799,-75.0344563,atm,Athena Bitcoin ATM,1583429483,"(40.0387799, -75.0344563)",US
272,29.7341298,-95.44120600000001,atm,Athena Bitcoin ATM,1583429483,"(29.7341298, -95.44120600000001)",US
273,33.889064399999995,-84.4783171,atm,Athena Bitcoin ATM,1583429483,"(33.889064399999995, -84.4783171)",US
274,30.1793946,-95.53779200000001,atm,Athena Bitcoin ATM,1583429484,"(30.1793946, -95.53779200000001)",US
275,33.8586264,-84.3419866,atm,Athena Bitcoin ATM,1583429486,"(33.8586264, -84.3419866)",US
276,27.9424967,-82.74687790000002,atm,Athena Bitcoin ATM,1583429487,"(27.9424967, -82.74687790000002)",US
277,26.0112539,-80.1455778,atm,Athena Bitcoin ATM,1583429488,"(26.0112539, -80.1455778)",US
278,39.9537032,-83.10911850000001,atm,Athena Bitcoin ATM,1583429489,"(39.9537032, -83.10911850000001)",US
279,26.1657401,-80.1577191,atm,Athena Bitcoin ATM,1583429489,"(26.1657401, -80.1577191)",US
280,39.8199515,-84.02825870000001,atm,Athena Bitcoin ATM,1583429489,"(39.8199515, -84.02825870000001)",US
281,25.768987399999997,-80.36948690000001,atm,Athena Bitcoin ATM,1583429490,"(25.768987399999997, -80.36948690000001)",US
282,25.840472600000002,-80.2823652,atm,Athena Bitcoin ATM,1583429490,"(25.840472600000002, -80.2823652)",US
283,38.5837455,-90.2661623,atm,Athena Bitcoin ATM,1583429490,"(38.5837455, -90.2661623)",US
284,28.0548704,-82.4453018,atm,Athena Bitcoin ATM,1583429491,"(28.0548704, -82.4453018)",US
285,33.9428527,-84.27158759999999,atm,Athena Bitcoin ATM,1583429492,"(33.9428527, -84.27158759999999)",US
286,25.8100172,-80.1996652,atm,Athena Bitcoin ATM,1583429493,"(25.8100172, -80.1996652)",US
287,25.520654800000003,-80.47849959999999,atm,Athena Bitcoin ATM,1583429493,"(25.520654800000003, -80.47849959999999)",US
288,33.9516226,-84.10233609999999,atm,Athena Bitcoin ATM,1583429495,"(33.9516226, -84.10233609999999)",US
289,38.634667900000004,-90.3450096,atm,Athena Bitcoin Inc.,1583429495,"(38.634667900000004, -90.3450096)",US
290,29.9539969,-95.5414147,atm,Athena Bitcoin Inc.,1583429496,"(29.9539969, -95.5414147)",US
291,32.7464069,-97.23264559999998,atm,Athena Bitcoin ATM,1583429497,"(32.7464069, -97.23264559999998)",US
292,40.804128600000006,-73.9377662,atm,Bitcoin ATM,1583429498,"(40.804128600000006, -73.9377662)",US
293,55.7302536,37.619312799999996,atm,?,1583429517,"(55.7302536, 37.619312799999996)",RU
294,5.8526050000000005,95.2709064,default,Monster Divers,1583066204,"(5.8526050000000005, 95.2709064)",ID
295,37.3997448,-79.1731064,default,?,1583429543,"(37.3997448, -79.1731064)",US
296,45.4786337,-75.51478259999999,atm,Honey Badger Bitcoin ATM,1583429546,"(45.4786337, -75.51478259999999)",CA
297,51.4630942,-2.5897305,atm,?,1583429561,"(51.4630942, -2.5897305)",GB
298,41.79343,-87.6641824,atm,Amstar Gas Station Bitcoin ATM,1583429570,"(41.79343, -87.6641824)",US
299,41.8828161,-87.6860768,atm,West Haven Coin Laundry Bitcoin ATM,1583429570,"(41.8828161, -87.6860768)",US
300,36.0357445,-115.17179399999999,atm,BIG V MARKET Bitcoin ATM,1583429573,"(36.0357445, -115.17179399999999)",US
301,39.8079105,-86.17305479999999,atm,Boost Mobile Bitcoin ATM,1583429573,"(39.8079105, -86.17305479999999)",US
302,43.0601487,-87.92657109999999,atm,BP Gas Station Bitcoin ATM,1583429574,"(43.0601487, -87.92657109999999)",US
303,43.1198021,-88.0254172,atm,?,1583429574,"(43.1198021, -88.0254172)",US
304,39.7923018,-86.1170608,atm,Citgo Gas Station Bitcoin ATM,1583429575,"(39.7923018, -86.1170608)",US
305,39.7599625,-86.0833512,atm,Citgo Gas Station Bitcoin ATM,1583429575,"(39.7599625, -86.0833512)",US
306,41.4229781,-81.7103042,atm,Convenient Food Mart Bitcoin ATM,1583429575,"(41.4229781, -81.7103042)",US
307,42.1992327,-83.221896,atm,?,1583429575,"(42.1992327, -83.221896)",US
308,41.780229999999996,-87.60557320000001,atm,Currency Exchange Bitcoin ATM,1583429576,"(41.780229999999996, -87.60557320000001)",US
309,41.7515141,-87.6048854,atm,Currency Exchange (Cottage Grove) Bitcoin ATM,1583429576,"(41.7515141, -87.6048854)",US
310,39.7741734,-86.1287007,atm,Dairy Barn Bitcoin ATM,1583429576,"(39.7741734, -86.1287007)",US
311,40.0478206,-75.14229559999998,atm,Exxon North Philli Bitcoin ATM,1583429576,"(40.0478206, -75.14229559999998)",US
312,39.8288881,-86.2708587,atm,Gills Marathon Bitcoin ATM,1583429577,"(39.8288881, -86.2708587)",US
313,41.6999422,-87.6423445,atm,Golo Bitcoin ATM,1583429577,"(41.6999422, -87.6423445)",US
314,41.5565445,-81.5498859,atm,Green Light Beverage Liquor Store Bitcoin ATM,1583429577,"(41.5565445, -81.5498859)",US
315,41.770298499999996,-87.68314240000001,atm,King Food and Liquor Bitcoin ATM,1583429577,"(41.770298499999996, -87.68314240000001)",US
316,41.8703937,-87.8528673,atm,Marathon Express Gas Station Bitcoin ATM,1583429577,"(41.8703937, -87.8528673)",US
317,41.4566457,-81.637496,atm,Marathon Gas Station Bitcoin ATM,1583429577,"(41.4566457, -81.637496)",US
318,39.85363529999999,-86.2395868,atm,Marathon Gas Station Bitcoin ATM,1583429578,"(39.85363529999999, -86.2395868)",US
319,29.742177500000004,-95.3591985,atm,Mobil Gas Bitcoin ATM,1583429579,"(29.742177500000004, -95.3591985)",US
320,33.9922367,-117.9152267,atm,OLE PAY Bitcoin ATM,1583429580,"(33.9922367, -117.9152267)",US
321,29.8021136,-95.4305089,atm,Speedy Mart Bitcoin ATM,1583429580,"(29.8021136, -95.4305089)",US
322,41.8665466,-87.7107547,atm,Star Gyro Bitcoin ATM,1583429581,"(41.8665466, -87.7107547)",US
323,29.7434512,-95.2968843,atm,Super Amigo Food Mart Bitcoin ATM,1583429581,"(29.7434512, -95.2968843)",US
324,41.8957836,-87.6377335,atm,The Galleria Bitcoin ATM,1583429582,"(41.8957836, -87.6377335)",US
325,40.0469784,-75.0696256,atm,Tyson Citgo Gas Station Bitcoin ATM,1583429582,"(40.0469784, -75.0696256)",US
326,41.7583088,-87.6316161,atm,Vincennes Currency Exchange Bitcoin ATM,1583429582,"(41.7583088, -87.6316161)",US
327,48.7229714,21.267583600000002,atm,Bitcoin ATM,1583429601,"(48.7229714, 21.267583600000002)",SK
328,35.660154799999994,139.6988784,default,Sakura Currency Exchange,1583429601,"(35.660154799999994, 139.6988784)",JP
329,33.747834999999995,-84.3488765,atm,Athena Bitcoin Inc.,1583429618,"(33.747834999999995, -84.3488765)",US
330,25.827294600000002,-80.19230490000001,atm,Athena Bitcoin Inc.,1583429619,"(25.827294600000002, -80.19230490000001)",US
331,45.492358,-73.55777109999998,atm,?,1583429620,"(45.492358, -73.55777109999998)",CA
332,45.7122539,-73.51270240000001,atm,?,1583429621,"(45.7122539, -73.51270240000001)",CA
333,45.50603579999999,-73.5618145,atm,?,1583429622,"(45.50603579999999, -73.5618145)",CA
334,45.51415,-73.5727312,atm,?,1583429622,"(45.51415, -73.5727312)",CA
335,45.4326664,-73.84791369999999,atm,?,1583429623,"(45.4326664, -73.84791369999999)",CA
336,40.1895171,44.5159277,atm,?,1583429624,"(40.1895171, 44.5159277)",AM
337,37.963809499999996,23.723119399999998,atm,?,1583429626,"(37.963809499999996, 23.723119399999998)",GR
338,33.6837431,-84.061908,atm,Athena Bitcoin ATM,1583429626,"(33.6837431, -84.061908)",US
339,33.976368,-83.94464659999998,atm,Athena Bitcoin ATM,1583429627,"(33.976368, -83.94464659999998)",US
340,33.772903899999996,-84.4169947,atm,Athena Bitcoin ATM,1583429628,"(33.772903899999996, -84.4169947)",US
341,27.966398499999997,-82.41457829999999,atm,Athena Bitcoin ATM,1583429628,"(27.966398499999997, -82.41457829999999)",US
342,33.7971686,-84.3693286,atm,Athena Bitcoin ATM,1583429629,"(33.7971686, -84.3693286)",US
343,40.4207493,-3.709961,atm,Vatcointech,1583429634,"(40.4207493, -3.709961)",ES
344,37.7847346,-122.4033544,default,?,1583429641,"(37.7847346, -122.4033544)",US
345,37.7847346,-122.4033544,default,?,1583429642,"(37.7847346, -122.4033544)",US
346,43.8253496,-79.53512459999999,atm,?,1583429646,"(43.8253496, -79.53512459999999)",CA
347,43.4614754,-79.68700109999999,atm,?,1583429649,"(43.4614754, -79.68700109999999)",CA
348,37.727967299999996,-122.4771196,default,?,1583429653,"(37.727967299999996, -122.4771196)",US
349,52.3800847,16.984005,atm,?,1583429653,"(52.3800847, 16.984005)",PL
350,45.532238,10.164191,atm,Walledo Kiosk,1583429655,"(45.532238, 10.164191)",IT
351,45.86486,13.428770000000002,atm,Walledo Kiosk,1583429655,"(45.86486, 13.428770000000002)",IT
352,59.434408499999996,24.7586328,atm,AIC ESTONIA OÜ,1583429656,"(59.434408499999996, 24.7586328)",EE
353,41.359398600000006,2.1362346000000003,default,BitBase,1583429658,"(41.359398600000006, 2.1362346000000003)",ES
354,53.5319863,8.1285822,default,Kiefer Networks,1582611077,"(53.5319863, 8.1285822)",DE
355,48.7618023,8.2416069,atm,?,1583429678,"(48.7618023, 8.2416069)",DE
356,51.8451125,5.860291200000001,atm,?,1583429682,"(51.8451125, 5.860291200000001)",NL
357,51.524465,-0.080821,atm,?,1583429693,"(51.524465, -0.080821)",GB
358,38.8100377,-77.2555552,atm,?,1583429695,"(38.8100377, -77.2555552)",US
359,48.7261977,21.2573966,atm,Bitcoin ATM,1583429698,"(48.7261977, 21.2573966)",SK
360,48.6943698,21.2393133,atm,?,1583429699,"(48.6943698, 21.2393133)",SK
361,-12.0683148,-77.01374609999999,shopping,Buzos Deportivos,1580769746,"(-12.0683148, -77.01374609999999)",PE
362,-12.0682982,-77.0137345,shopping,Camisetas de Futbol,1580769746,"(-12.0682982, -77.0137345)",PE
363,41.0140874,28.9677702,shopping,Rdekoavm Sanal Mağazacılık,1577900066,"(41.0140874, 28.9677702)",TR
364,48.6929792,18.600134699999998,food,Impress,1577967633,"(48.6929792, 18.600134699999998)",SK
365,45.282936,8.758825,default,Centro Ippico ASD Stella,1578236837,"(45.282936, 8.758825)",IT
366,47.339265399999995,9.5237136,shopping,FixThis.ch,1578582421,"(47.339265399999995, 9.5237136)",CH
367,53.5347825,-2.283318,default,North Manchester Joinery,1578769687,"(53.5347825, -2.283318)",GB
368,48.140455100000004,17.120387899999997,atm,Cryptobankomat,1578842275,"(48.140455100000004, 17.120387899999997)",SK
369,53.5347876,-2.2832852999999997,shopping,North Manchester Joinery,1579041474,"(53.5347876, -2.2832852999999997)",GB
370,45.5102551,-122.655978,shopping,Free Geek,1579137756,"(45.5102551, -122.655978)",US
371,40.8311253,14.249356099999998,food,Pizzeria Pizze d'Autore del Maestro Pizzaziolo Gigi Sorbillo,1579682472,"(40.8311253, 14.249356099999998)",IT
372,40.826359000000004,14.202718300000003,shopping,Cartolibreria Giorgio Lieto di Lieto Gianfranco,1579682704,"(40.826359000000004, 14.202718300000003)",IT
373,41.167173600000005,-8.6342946,shopping,Mr. Boss Barber Shop and Miss Boss Hair Saloon,1580559719,"(41.167173600000005, -8.6342946)",PT
374,41.1672131,-8.6345468,food,Churrasqueira Central de Francos,1580598297,"(41.1672131, -8.6345468)",PT
375,-12.068292,-77.01371280000001,shopping,Polos Deportivos,1580769746,"(-12.068292, -77.01371280000001)",PE
376,32.9281979,35.3194764,grocery,?,1580996540,"(32.9281979, 35.3194764)",IL
377,43.7198112,10.3973581,atm,?,1581007011,"(43.7198112, 10.3973581)",IT
378,27.768253499999997,-15.5485549,cafe,heladería cacao,1581517071,"(27.768253499999997, -15.5485549)",ES
379,45.453154,9.20102,atm,CryptoLocalATM c/o Empire Coffee,1581867980,"(45.453154, 9.20102)",IT
380,59.4526316,24.8752353,shopping,GIG,1583184565,"(59.4526316, 24.8752353)",EE
381,41.8582012,-87.660269,atm,Blue1647,1583429759,"(41.8582012, -87.660269)",US
382,-23.7270691,-46.6991679,attraction,Praça Vila Rubi,1578864423,"(-23.7270691, -46.6991679)",BR
383,55.1691041,-118.79383500000002,lodging,Sandman Hotel Grande Prairie,1580155546,"(55.1691041, -118.79383500000002)",CA
384,45.37246099,14.34856296,food,Oštarija Fortica,1583752470,"(45.37246099, 14.34856296)",HR
385,46.05322392,14.50686157,default,Gold store,1583752620,"(46.05322392, 14.50686157)",SI
386,46.04970199,14.516716,cafe,Fajn food,1583752714,"(46.04970199, 14.516716)",SI
387,27.752489,-82.6469457,atm,Athena Bitcoin ATM,1583429829,"(27.752489, -82.6469457)",US
388,46.04967965,14.51678574,food,Fajn Fuud Pizza,1583752779,"(46.04967965, 14.51678574)",SI
389,53.53528370000001,-2.2834187999999997,default,?,1579041474,"(53.53528370000001, -2.2834187999999997)",GB
390,53.5348199,-2.2833236,shopping,North Manchester Joinery,1578094446,"(53.5348199, -2.2833236)",GB
391,43.630993,-116.203639,food,Hyde Park Sno Shack,1580546683,"(43.630993, -116.203639)",US
392,59.2759625,28.9081195,default,Малиновка-1,1583429934,"(59.2759625, 28.9081195)",RU
393,46.5014684,11.252608300000002,sports,Golf Club Eppan,1583429934,"(46.5014684, 11.252608300000002)",IT
394,11.503556300000001,-85.55139759999999,lodging,"Xalli, Ometepe Beach Hotel - Nicaragua",1583429935,"(11.503556300000001, -85.55139759999999)",NI
395,40.4270979,-3.6873459000000004,lodging,Petit Palace Embassy Serrano,1583429935,"(40.4270979, -3.6873459000000004)",ES
396,4.8073801,-75.7229541,default,Metroparque del Café,1583429936,"(4.8073801, -75.7229541)",CO
397,-23.832336399999996,-46.710285999999996,attraction,EMEF Ulysses da Sylveira Guimaraes,1583429936,"(-23.832336399999996, -46.710285999999996)",BR
398,-23.723636499999998,-46.7060656,attraction,Ambulatório de Especialidades Jardim Cliper,1583429937,"(-23.723636499999998, -46.7060656)",BR
399,-23.712159399999997,-46.69566629999999,attraction,48º DP - Cidade Dutra - Polícia Civil - Distrito Policial,1583429938,"(-23.712159399999997, -46.69566629999999)",BR
400,-23.741760600000003,-46.709044899999995,attraction,50º Batalhão de Polícia Militar Metropolitano PMESP,1583429938,"(-23.741760600000003, -46.709044899999995)",BR
401,39.687853999999994,16.287412900000003,nightlife,bar hotel san francesco,1578383527,"(39.687853999999994, 16.287412900000003)",IT
402,37.4731917,-77.44402290000001,default,Superior Outlet And Pawn Shop,1578638871,"(37.4731917, -77.44402290000001)",US
403,53.534748300000004,-2.2833127999999996,default,North Manchester Joinery,1579041474,"(53.534748300000004, -2.2833127999999996)",GB
404,44.0391376,-123.0690895,grocery,Doctors Office w/ Candy,1579041527,"(44.0391376, -123.0690895)",US
405,36.1449388,-115.19548799999998,lodging,"The Clyde, a Bed & Bay Residence Inn",1579232681,"(36.1449388, -115.19548799999998)",US
406,36.1392643,-115.23226979999998,lodging,"The Escondido, a Bed & Bay Residence Inn",1579232863,"(36.1392643, -115.23226979999998)",US
407,36.1448939,-115.1953625,lodging,"The Bonnie, a Bed & Bay Residence Inn",1579742691,"(36.1448939, -115.1953625)",US
408,-34.4764094,19.89385,default,Xtreme Pro Paintball Guns,1579869279,"(-34.4764094, 19.89385)",ZA
409,50.29748202,15.5905652,default,test vvenue,1583370234,"(50.29748202, 15.5905652)",CZ
410,48.41456165,18.04832697,default,tets,1583428394,"(48.41456165, 18.04832697)",SK
411,46.4078349,11.238410499999999,default,Cosmo Life S.r.l.,1582635343,"(46.4078349, 11.238410499999999)",IT
412,51.5880451,4.5286544,food,Brasserie Tivoli,1582271816,"(51.5880451, 4.5286544)",NL
413,46.04969455,14.51664627,food,Fajn Fuud Burger,1583752846,"(46.04969455, 14.51664627)",SI
414,46.24183921,14.35679734,default,Gold store ,1583752906,"(46.24183921, 14.35679734)",SI
415,38.8211373,-90.5170204,atm,GeneralBytes two-way bitcoin kiosk,1583429067,"(38.8211373, -90.5170204)",US
416,46.56122097,15.62659264,transport,TaxiPlus,1583752994,"(46.56122097, 15.62659264)",SI
417,46.06493105,14.54509377,shopping,Gold store ,1583749458,"(46.06493105, 14.54509377)",SI
418,47.49808972,19.05541599,nightlife,Brewdog Brewery,1583770184,"(47.49808972, 19.05541599)",HU
419,18.7857246,98.98183309999999,nightlife,Boo Bar in Old City,1579339311,"(18.7857246, 98.98183309999999)",TH
420,-29.36025925,-50.82895517,lodging,AIRBNB,1583437839,"(-29.36025925, -50.82895517)",BR
421,-29.36186757,-50.82883716,shopping,MAKEGRAMADO,1583436553,"(-29.36186757, -50.82883716)",BR
422,-29.35900624,-50.82912683,lodging,Hospedagem - PET,1583438209,"(-29.35900624, -50.82912683)",BR
423,-29.35801504,-50.82916975,transport,TRANSFER - MOTORISTA,1583438443,"(-29.35801504, -50.82916975)",BR
424,-29.36376573,-50.80989003,default,Consultoria - criptomoedas,1583438737,"(-29.36376573, -50.80989003)",BR
425,-29.36212003,-50.82190096,sports,Personal - Crossfit,1583439195,"(-29.36212003, -50.82190096)",BR
426,39.4570256,-0.356862545,lodging,Apt. for rent,1583440791,"(39.4570256, -0.356862545)",ES
427,19.14958212,-96.16545975,atm,Designinnweb,1583520702,"(19.14958212, -96.16545975)",MX
428,46.04794839,14.51699495,cafe,Maestral caffe,1583697744,"(46.04794839, 14.51699495)",SI
429,38.9840487,-78.18276644,atm,Bitcoin ATM ,1583550727,"(38.9840487, -78.18276644)",US
430,-41.11259812,173.0099487,transport,Abel Tasman Tours,1583565900,"(-41.11259812, 173.0099487)",NZ
431,46.0731227,14.48730826,shopping,Zlato center,1583696346,"(46.0731227, 14.48730826)",SI
432,45.90916691,15.29316187,default,Elektro team servis Peter Čelesnik,1583696583,"(45.90916691, 15.29316187)",SI
433,46.06293227,14.85619247,default,Kolesarski servis Vidic,1583697033,"(46.06293227, 14.85619247)",SI
434,46.05455296,14.565956,cafe,Sombrero bar,1583697240,"(46.05455296, 14.565956)",SI
435,46.05476144,14.56464708,cafe,Coco Cubana Caffe,1583697338,"(46.05476144, 14.56464708)",SI
436,46.34443914,15.993990900000002,shopping,Kmetijska trgovina Cirkulane,1583698159,"(46.34443914, 15.993990900000002)",SI
437,46.40839251,16.15782022,shopping,Kmetijska trgovina Kosec,1583698359,"(46.40839251, 16.15782022)",SI
438,43.43746456,-79.74045396,default,Pest Lab,1584509898,"(43.43746456, -79.74045396)",CA
439,46.40837032,16.15762711,shopping,Kmetijska trgovina Marof – Ormož,1583698601,"(46.40837032, 16.15762711)",SI
440,46.39614798,16.26793027,shopping,Kmetijska trgovina Središče ob Dravi,1583698838,"(46.39614798, 16.26793027)",SI
441,46.43858886,16.24395132,shopping,"Kmetijska trgovina, Vitan",1583699436,"(46.43858886, 16.24395132)",SI
442,46.42569663,16.057296400000002,shopping,Kmetijska trgovina Podgorci,1583699627,"(46.42569663, 16.057296400000002)",SI
443,46.46879805,16.00319624,shopping,Kmetijska trgovina Polenšak,1583699782,"(46.46879805, 16.00319624)",SI
444,46.48513374,15.97062886,shopping,"Kmetijska trgovina, Juršinci",1583699923,"(46.48513374, 15.97062886)",SI
445,46.51527279999999,15.94122112,shopping,"Kmetijska trgovina, Vitomarci",1583700140,"(46.51527279999999, 15.94122112)",SI
446,46.52163303,15.8894223,shopping,Kmetijska trgovina Trnovska vas,1583700361,"(46.52163303, 15.8894223)",SI
447,46.05272878,14.514409299999999,food,Miškova pekarna,1583700752,"(46.05272878, 14.514409299999999)",SI
448,46.06550052,14.50887859,food,Leskovački dvor,1583700973,"(46.06550052, 14.50887859)",SI
449,46.05263199,14.50522006,cafe,"Hotspot Ljubljana, Center",1583701159,"(46.05263199, 14.50522006)",SI
450,46.07450709,14.51826096,cafe,"Hotspot Ljubljana, Kardeljeva",1583701295,"(46.07450709, 14.51826096)",SI
451,46.08690173,14.48278606,food,Restavracija Dobri Čuk,1583701513,"(46.08690173, 14.48278606)",SI
452,46.15056502,14.61490095,shopping,Sportina,1583701724,"(46.15056502, 14.61490095)",SI
453,46.01933186,14.53534126,shopping,Sportina Outlet,1583702003,"(46.01933186, 14.53534126)",SI
454,46.08797325,14.47700858,shopping,Sportina Man,1583702280,"(46.08797325, 14.47700858)",SI
455,46.23234048,14.36780512,shopping,Sportina Man,1583702463,"(46.23234048, 14.36780512)",SI
456,46.23216979,14.36707556,shopping,Sportina  ,1583702587,"(46.23216979, 14.36707556)",SI
457,46.24321564,14.37603414,shopping,Sportina Outlet,1583702735,"(46.24321564, 14.37603414)",SI
458,46.34376886,14.17608082,shopping,Sportina Outlet,1583702870,"(46.34376886, 14.17608082)",SI
459,46.36706084,14.10978734,default,Sportina  Woman,1583703029,"(46.36706084, 14.10978734)",SI
460,46.06845573,14.54514205,shopping,Parfois,1583703188,"(46.06845573, 14.54514205)",SI
461,46.24184663,15.27668238,shopping,XYZ Studio,1583703423,"(46.24184663, 15.27668238)",SI
462,50.09998467,14.47071075,food,COINMAP.CASH,1583710497,"(50.09998467, 14.47071075)",CZ
463,50.08320339,14.42207694,food,COINMAP.CASH,1583710766,"(50.08320339, 14.42207694)",CZ
464,51.98108724,5.908455849,default,BMAP.CASH,1583710895,"(51.98108724, 5.908455849)",NL
465,51.98202558,5.913176537000001,food,BITCOINMAP.CASH,1583710931,"(51.98202558, 5.913176537000001)",NL
466,51.98244849,5.9061169620000005,food,COINMAP.CASH,1583710975,"(51.98244849, 5.9061169620000005)",NL
467,13.71637253,100.5571747,food,BITCOINMAP.CASH,1583711126,"(13.71637253, 100.5571747)",TH
468,45.5396053,13.73429954,shopping,Sgermobil,1583739933,"(45.5396053, 13.73429954)",SI
469,46.54659794,14.96284246,shopping,Sgermobil,1583740091,"(46.54659794, 14.96284246)",SI
470,46.24183179,15.27803421,shopping,Sgermobil,1583740351,"(46.24183179, 15.27803421)",SI
471,45.82811894,15.18223107,shopping,Sgermobil,1583740695,"(45.82811894, 15.18223107)",SI
472,46.06823614,14.54638124,shopping,Sgermobil,1583740824,"(46.06823614, 14.54638124)",SI
473,46.53990485,15.64028263,shopping,Sgermobil,1583741376,"(46.53990485, 15.64028263)",SI
474,46.02035626,14.53680575,shopping,Sgermobil,1583741542,"(46.02035626, 14.53680575)",SI
475,46.52288063,15.65295339,shopping,Sgermobil,1583741680,"(46.52288063, 15.65295339)",SI
476,46.42371835,15.88645577,shopping,Sgermobil,1583741992,"(46.42371835, 15.88645577)",SI
477,46.24084860000001,15.27872086,shopping,Parfois,1583742221,"(46.24084860000001, 15.27872086)",SI
478,46.66822081,16.17909014,shopping,Sportina  ,1583743521,"(46.66822081, 16.17909014)",SI
479,46.55301721,15.65269589,shopping,Sportina  ,1583743706,"(46.55301721, 15.65269589)",SI
480,46.5527184,15.65339863,shopping,Parfois,1583743888,"(46.5527184, 15.65339863)",SI
481,46.55288441,15.65384388,shopping,Superdry,1583743990,"(46.55288441, 15.65384388)",SI
482,46.55317215,15.65399945,shopping,XYZ Premium Fashion Store,1583744079,"(46.55317215, 15.65399945)",SI
483,45.54737866,13.72935355,shopping,Sportina  ,1583744562,"(45.54737866, 13.72935355)",SI
484,45.54447458,13.74069393,shopping,S/O Sportina,1583744710,"(45.54447458, 13.74069393)",SI
485,45.53938737,13.73477161,shopping,Superdry,1583744982,"(45.53938737, 13.73477161)",SI
486,45.53945876,13.73584449,shopping,Sportina  ,1583745078,"(45.53945876, 13.73584449)",SI
487,46.07568676,14.48917508,food,MK Grill,1583745339,"(46.07568676, 14.48917508)",SI
488,46.089710700000005,14.47749674,food,Fast Food Twins,1583745438,"(46.089710700000005, 14.47749674)",SI
489,46.03868427,14.47782934,shopping,Sportina  ,1583745639,"(46.03868427, 14.47782934)",SI
490,46.08788024,14.47513103,shopping,Sportina  ,1583745768,"(46.08788024, 14.47513103)",SI
491,45.82773393,15.18238664,shopping,Sportina  ,1583746447,"(45.82773393, 15.18238664)",SI
492,45.82115835,15.1553607,shopping,Sportina  ,1583746224,"(45.82115835, 15.1553607)",SI
493,46.02181647,14.53601182,shopping,Parfois,1583746618,"(46.02181647, 14.53601182)",SI
494,46.02082189,14.53798592,shopping,Marx ,1583746872,"(46.02082189, 14.53798592)",SI
495,46.22307394,14.60804522,default,Štolfa team d.o.o.,1583747726,"(46.22307394, 14.60804522)",SI
496,46.07312642,14.49943721,default,Showroom Autobroker,1583749231,"(46.07312642, 14.49943721)",SI
497,46.05771722,14.54172492,default,Bioguano d.o.o.,1583749639,"(46.05771722, 14.54172492)",SI
498,46.40586985,14.15476799,food,BLACK SWAN burger,1583750637,"(46.40586985, 14.15476799)",SI
499,46.48549571,13.78919899,food,BLACK SWAN burger,1583750856,"(46.48549571, 13.78919899)",SI
500,46.44551991,15.84795535,shopping,Kmetijska trgovina Grajena,1583751147,"(46.44551991, 15.84795535)",SI
501,46.00609487,8.951352239,shopping,Dieci,1583751212,"(46.00609487, 8.951352239)",CH
502,46.51445696,15.71874261,shopping,Kmetijska trgovina Duplek,1583751279,"(46.51445696, 15.71874261)",SI
503,45.32735695,14.44313228,default,Gallery RIart,1583751301,"(45.32735695, 14.44313228)",HR
504,46.51890889,15.78456402,shopping,Kmetijska trgovina Korena,1583751549,"(46.51890889, 15.78456402)",SI
505,46.63713535,15.61289191,shopping,Kmetijska trgovina Kungota,1583751851,"(46.63713535, 15.61289191)",SI
506,46.05470932,14.56860065,default,Strelsko društvo 111,1583752273,"(46.05470932, 14.56860065)",SI
507,46.22962043,15.26131332,shopping,Gold store ,1583750236,"(46.22962043, 15.26131332)",SI
508,45.54619901,13.72597933,default,Gold store ,1583752406,"(45.54619901, 13.72597933)",SI
509,45.32986493,14.43894804,sports,Adriatic Sailing,1583753298,"(45.32986493, 14.43894804)",HR
510,46.06583923,14.55025971,food,Kolosej kokice,1583753653,"(46.06583923, 14.55025971)",SI
511,46.0668516,14.54413354,shopping,Planeta,1583753687,"(46.0668516, 14.54413354)",SI
512,46.06588389,14.54993248,food,Kolosej bomboni,1583753737,"(46.06588389, 14.54993248)",SI
513,46.0654968,14.54990566,cafe,Cafe Cubano	,1583753814,"(46.0654968, 14.54990566)",SI
514,45.3266479,14.44497764,shopping,Optika Vid,1583753921,"(45.3266479, 14.44497764)",HR
515,46.06543725,14.54975545,cafe,Happy End Cafe	,1583754116,"(46.06543725, 14.54975545)",SI
516,46.13086147,14.66859341,default,Fan vit-as,1583754287,"(46.13086147, 14.66859341)",SI
517,46.06610349,14.54951406,cafe,Happy End Cafe	,1583754324,"(46.06610349, 14.54951406)",SI
518,46.06534792,14.54961061,cafe,Vrt Ljubljana,1583754361,"(46.06534792, 14.54961061)",SI
519,46.15292852,14.62433159,default,De-vita,1583754435,"(46.15292852, 14.62433159)",SI
520,46.052211299999996,14.50280607,cafe,Bar Komuna,1583754573,"(46.052211299999996, 14.50280607)",SI
521,46.16367079,14.66934443,default,Gas David Gostič s.p.,1583754716,"(46.16367079, 14.66934443)",SI
522,45.34452213,14.38320637,default,"Foto Kurti, Trg rijeckih olimpijaca",1583754682,"(45.34452213, 14.38320637)",HR
523,46.059303,14.53467607,default,F.dvor tiskarna,1583755018,"(46.059303, 14.53467607)",SI
524,46.00446657,8.953095675,shopping,Imove,1583755020,"(46.00446657, 8.953095675)",CH
525,45.3265951,14.44513321,default,"Foto Kurti, Uzarska",1583755027,"(45.3265951, 14.44513321)",HR
526,46.05932534,14.53476191,default,Spletna tiskarna,1583755095,"(46.05932534, 14.53476191)",SI
527,46.08363497,14.48409498,cafe,Dobra Hiša,1583755300,"(46.08363497, 14.48409498)",SI
528,46.05166403,14.50914681,food,Južna na plac,1583755420,"(46.05166403, 14.50914681)",SI
529,46.00703382,8.955922722999999,default,FinLantern,1583755490,"(46.00703382, 8.955922722999999)",CH
530,46.05167519,14.50928092,cafe,Kofe na plac,1583755492,"(46.05167519, 14.50928092)",SI
531,45.58817027,17.21811891,shopping,Dundo i Štefica,1583755499,"(45.58817027, 17.21811891)",HR
532,46.088055100000005,14.47566748,food,Vozi Miško,1583755618,"(46.088055100000005, 14.47566748)",SI
533,46.00989901,8.949147463,default,Novaretis - digital investment consulting,1583755705,"(46.00989901, 8.949147463)",CH
534,45.33189386,14.46487427,food,Konoba Tarsa,1583755711,"(45.33189386, 14.46487427)",HR
535,46.02214054,14.53585088,food,Vozi Miško,1583755729,"(46.02214054, 14.53585088)",SI
536,46.00682889,8.955847621,food,Staglio - La pizza al taglio,1583760271,"(46.00682889, 8.955847621)",CH
537,46.25184077,15.16511321,default,Kreativna Fabrika,1583760476,"(46.25184077, 15.16511321)",SI
538,46.34036549,15.17995119,sports,Yogi Moto Center,1583761386,"(46.34036549, 15.17995119)",SI
539,45.32751535,14.44301426,food,Primorska Konoba,1583761499,"(45.32751535, 14.44301426)",HR
540,46.06815426,14.46960568,cafe,Kačji Pastir,1583761501,"(46.06815426, 14.46960568)",SI
541,45.99319385,8.946062922000001,shopping,Vulkan Lugano,1583761580,"(45.99319385, 8.946062922000001)",CH
542,45.99341374,8.945960999,food,Ristorante Pizzeria Bar Domino,1583761722,"(45.99341374, 8.945960999)",CH
543,46.13219236,14.5618093,shopping,Cvetličarna Anaeva,1583761751,"(46.13219236, 14.5618093)",SI
544,45.32529391,14.44395304,shopping,Garica CBD Shop,1583761866,"(45.32529391, 14.44395304)",HR
545,46.00979096,8.955375552000001,shopping,Balmelli Outlet Sport,1583761871,"(46.00979096, 8.955375552000001)",CH
546,45.3265951,14.44401205,shopping,Vintage Room,1583762176,"(45.3265951, 14.44401205)",HR
547,46.01143028,8.959490061,shopping,Musicdoor HIFI Sagl,1583762285,"(46.01143028, 8.959490061)",CH
548,46.00731699,8.968250155,shopping,Smart Rent,1583762457,"(46.00731699, 8.968250155)",CH
549,46.00721639,8.954436779,shopping,Balmellino,1583762011,"(46.00721639, 8.954436779)",CH
550,45.32710426,14.44370091,shopping,Mare Art,1583762535,"(45.32710426, 14.44370091)",HR
551,46.00563284,8.951502442,shopping,Storica,1583762605,"(46.00563284, 8.951502442)",CH
552,46.24403555,14.34977531,shopping,Anina kuhinja online store	,1583762652,"(46.24403555, 14.34977531)",SI
553,46.00714559,8.954415321,shopping,Balmelli Sport,1583762177,"(46.00714559, 8.954415321)",CH
554,46.00773429,8.953315616,shopping,Ottica Vicari,1583762751,"(46.00773429, 8.953315616)",CH
555,45.98299613,8.956373334,food,Ristorante Capo San Martino,1583762874,"(45.98299613, 8.956373334)",IT
556,46.37247237,15.39068699,shopping,Harmonija.net online store,1583762867,"(46.37247237, 15.39068699)",SI
557,45.35096905,14.38202083,shopping,Mateyaneira,1583762909,"(45.35096905, 14.38202083)",HR
558,46.00656434,8.951824307,shopping,New Trends SA Real Estate Services,1583762976,"(46.00656434, 8.951824307)",CH
559,45.75804725,13.83281171,default,Zvita feltna,1583763078,"(45.75804725, 13.83281171)",IT
560,46.00613585,8.953868151,shopping,Tech technology everyday,1583763212,"(46.00613585, 8.953868151)",CH
561,46.35468856,16.15264893,shopping,Mijo Majhen Hair,1583763276,"(46.35468856, 16.15264893)",HR
562,46.55984516,15.647841099999999,shopping,Trgovina Luna,1583763289,"(46.55984516, 15.647841099999999)",SI
563,46.55419031,15.65409601,shopping,Trgovina LUNA,1583763401,"(46.55419031, 15.65409601)",SI
564,46.00455599,8.952113986,cafe,Mauri Concept,1583763409,"(46.00455599, 8.952113986)",CH
565,46.41931409,15.8723259,shopping,LUNA outlet,1583763605,"(46.41931409, 15.8723259)",SI
566,46.00119492,8.949818015,attraction,Debarcadero Lugano Centrale,1583763677,"(46.00119492, 8.949818015)",CH
567,47.37357161,8.53515923,cafe,Manuel's,1583763999,"(47.37357161, 8.53515923)",CH
568,46.45350337,15.67587018,cafe,Kava bar Joca,1583765961,"(46.45350337, 15.67587018)",SI
569,46.48601282,13.78920972,lodging,Hostel Snezinka,1583766086,"(46.48601282, 13.78920972)",SI
570,46.45914653,15.82026958,default,Avto Šajn,1583766374,"(46.45914653, 15.82026958)",SI
571,46.34773116,14.16828096,food,Wrapping,1583766579,"(46.34773116, 14.16828096)",SI
572,46.04339844,14.50512886,food,Restavracija Manna,1583766698,"(46.04339844, 14.50512886)",SI
573,45.70331339,13.86839926,default,DRM,1583766837,"(45.70331339, 13.86839926)",SI
574,46.07328273,14.49714661,default,DRM,1583766946,"(46.07328273, 14.49714661)",SI
575,46.239435,15.25099218,default,DRM,1583767111,"(46.239435, 15.25099218)",SI
576,45.82693772,15.18537998,cafe,Rdeča Češnja,1583767367,"(45.82693772, 15.18537998)",SI
577,46.63808563,16.16599023,food,EXPANO Food&Drink,1583767541,"(46.63808563, 16.16599023)",SI
578,46.55693112,15.64490676,food,Takos ,1583767774,"(46.55693112, 15.64490676)",SI
579,46.55365541,15.65424085,food,Takos ,1583767624,"(46.55365541, 15.65424085)",SI
580,46.11366854,14.46148932,cafe,Cojzla,1583767996,"(46.11366854, 14.46148932)",SI
581,46.55985622,15.6417954,food,Bubble Waffle,1583768360,"(46.55985622, 15.6417954)",SI
582,46.391649,15.57266951,shopping,GSM aparati,1583768701,"(46.391649, 15.57266951)",SI
583,46.35221524,15.12780905,shopping,GSM aparati,1583768846,"(46.35221524, 15.12780905)",SI
584,46.5453804,14.96373296,shopping,GSM aparati,1583768998,"(46.5453804, 14.96373296)",SI
585,45.32664036,14.44481671,shopping,Sally Atelier,1583769215,"(45.32664036, 14.44481671)",HR
586,45.31756156,14.46974516,shopping,Sally Atelier TCR,1583769391,"(45.31756156, 14.46974516)",HR
587,45.32245381,14.461371300000001,shopping,BigBox Outlet,1583769812,"(45.32245381, 14.461371300000001)",HR
588,45.70301742,16.39404774,default,Maya´s beauty concept store,1583770000,"(45.70301742, 16.39404774)",HR
589,31.38715682,34.74022372,default,Pharmanice,1585536911,"(31.38715682, 34.74022372)",IL
590,5.617822319,-73.81563127,shopping,La esquina del calzado,1583789392,"(5.617822319, -73.81563127)",CO
591,5.61829212,-73.81533623,shopping,El descalzo,1583789572,"(5.61829212, -73.81533623)",CO
592,5.618331437999999,-73.81522174,default,Bodega el descalzo,1583789623,"(5.618331437999999, -73.81522174)",CO
593,5.618425586,-73.81513238,shopping,Calza jarvill,1583789761,"(5.618425586, -73.81513238)",CO
594,5.618251596,-73.81507344,shopping,Manufacturas en cuero el corcel,1583789890,"(5.618251596, -73.81507344)",CO
595,5.61666383,-73.8153255,shopping,Innovación deportiva,1583790309,"(5.61666383, -73.8153255)",CO
596,5.617491814,-73.81560441,default,Tienda de tecnología e internet,1583790920,"(5.617491814, -73.81560441)",CO
597,45.32836015,14.44034815,cafe,Klub Bačva,1583828581,"(45.32836015, 14.44034815)",HR
598,45.79405537,16.03400946,shopping,"Kerver, Zagreb - CCO East",1583829331,"(45.79405537, 16.03400946)",HR
599,45.79974031,15.88515759,shopping,Kerver CCO West,1583829784,"(45.79974031, 15.88515759)",HR
600,45.73546672,16.0160923,default,GoodGate,1583831815,"(45.73546672, 16.0160923)",HR
601,43.08233983,25.64112961,lodging,Architect's House Hostel,1583831834,"(43.08233983, 25.64112961)",BG
602,43.09801776,25.66876173,food,Mehana Arbat,1583832033,"(43.09801776, 25.66876173)",BG
603,42.48558824,26.50621712,attraction,Magic of Zain,1583832430,"(42.48558824, 26.50621712)",BG
604,44.95927894,14.408741000000001,default,Kontent,1583832451,"(44.95927894, 14.408741000000001)",HR
605,42.67252458,23.35495949,default,Priori Estates,1583832742,"(42.67252458, 23.35495949)",BG
606,45.81716553,15.89484036,default,Vizazistica Dajana Pajkic,1583832783,"(45.81716553, 15.89484036)",HR
607,43.084099,25.63880682,cafe,Old Capital's Bar,1583832889,"(43.084099, 25.63880682)",BG
608,45.38088291,14.37810481,default,Blockadopt,1583833472,"(45.38088291, 14.37810481)",HR
609,42.48346779999999,26.51007414,cafe,Cafe-Club Cult,1583833622,"(42.48346779999999, 26.51007414)",BG
610,46.2420581,14.35478032,default,Creina,1583833677,"(46.2420581, 14.35478032)",SI
611,46.16570308,14.57180321,default,Pr'brivcu,1583833959,"(46.16570308, 14.57180321)",SI
612,46.07535928,14.51252103,default,Lompack,1583834135,"(46.07535928, 14.51252103)",SI
613,45.35164009,14.36654449,shopping,Harreither,1583834330,"(45.35164009, 14.36654449)",HR
614,45.77392527,15.96016824,default,Centar za kvalitetu i sigurnost,1583834686,"(45.77392527, 15.96016824)",HR
615,46.06142103,14.54354346,default,Cube Fit food&burgers,1583835269,"(46.06142103, 14.54354346)",SI
616,46.05237138,14.50853527,default,Kalček,1583835570,"(46.05237138, 14.50853527)",SI
617,46.42536014,15.88365555,shopping,Kmetijska trgovina Ptuj - Zadružnik,1583835628,"(46.42536014, 15.88365555)",SI
618,45.32673465,14.4441247,cafe,Stop Caffe & club,1583835646,"(45.32673465, 14.4441247)",HR
619,46.08643294,14.47623074,default,Kalček ,1583835974,"(46.08643294, 14.47623074)",SI
620,45.32731546,14.44758475,food,"Market Smiljana, Titov trg",1583836062,"(45.32731546, 14.44758475)",HR
621,46.02282965,15.89798391,shopping,Uzagorju.com,1583836120,"(46.02282965, 15.89798391)",HR
622,46.02283337,15.89791417,shopping,Incredible-croatia.com,1583836264,"(46.02283337, 15.89791417)",HR
623,46.019234999999995,15.88980854,shopping,"Alati Milić, Zabok",1583836411,"(46.019234999999995, 15.88980854)",HR
624,46.06350548,14.544863099999999,default,Radha Govinda,1583836579,"(46.06350548, 14.544863099999999)",SI
625,45.80603795,15.9691751,shopping,Rijeka Adventures,1583836598,"(45.80603795, 15.9691751)",HR
626,45.80932486,15.88948131,shopping,"Alati Milić, Malešnica",1583836640,"(45.80932486, 15.88948131)",HR
627,43.51728372,16.45911276,shopping,"Alati Milić, Split 2",1583837173,"(43.51728372, 16.45911276)",HR
628,45.32532031,14.44276214,cafe,Phanas Pub,1583837311,"(45.32532031, 14.44276214)",HR
629,45.32689305,14.44225788,shopping,Sex shop Taboo,1583837495,"(45.32689305, 14.44225788)",HR
630,46.16787275,14.56622958,default,Pr'Fartku,1583839569,"(46.16787275, 14.56622958)",SI
631,46.06432063,14.51071858,default,Kavarna Mikavna,1583839803,"(46.06432063, 14.51071858)",SI
632,46.36925957,15.90086997,default,Kmetijska trgovina Videm pri Ptuju,1583839872,"(46.36925957, 15.90086997)",SI
633,46.32917623,15.93614101,shopping,Kmetijska trgovina Leskovec,1583841112,"(46.32917623, 15.93614101)",SI
634,46.3784348,16.05544031,shopping,Kmetijska trgovina Zavrč,1583842946,"(46.3784348, 16.05544031)",SI
635,46.43331329,15.95169246,shopping,Kmetijska trgovina Dornava,1583843322,"(46.43331329, 15.95169246)",SI
636,45.32655362,14.44431245,cafe,Samovar Bar,1583843813,"(45.32655362, 14.44431245)",HR
637,45.80132227,16.00943506,shopping,Emobile Online store,1583843818,"(45.80132227, 16.00943506)",HR
638,45.77990034,15.9939158,sports,Triggerimpulse,1583844578,"(45.77990034, 15.9939158)",HR
639,43.26152646,16.65874422,cafe,Big Blue Caffe Bar,1583844669,"(43.26152646, 16.65874422)",HR
640,45.32814141,14.44025695,shopping,Voyager Travel Agency,1583844759,"(45.32814141, 14.44025695)",HR
641,43.25992866,16.63986683,sports,Big Blue Bike Center no. 1,1583844779,"(43.25992866, 16.63986683)",HR
642,43.25886605,16.64384723,sports,Big Blue Windsurfing Center,1583844480,"(43.25886605, 16.64384723)",HR
643,45.3816591,14.385749100000002,food,Pizzeria Podroom,1583845059,"(45.3816591, 14.385749100000002)",HR
644,43.2605381,16.64297819,sports,Big Blue Bike Center no. 2,1583845155,"(43.2605381, 16.64297819)",HR
645,43.26053028,16.64290309,shopping,Big Blue Sport Shop no. 2,1583845227,"(43.26053028, 16.64290309)",HR
646,43.26153428,16.65866375,shopping,Big Blue Sport Shop,1583844983,"(43.26153428, 16.65866375)",HR
647,45.81467548,15.97768307,cafe,Harats Pub,1583845563,"(45.81467548, 15.97768307)",HR
648,45.79658748,15.91678083,default,Mark-Logistika,1583846178,"(45.79658748, 15.91678083)",HR
649,45.79825555,15.91174901,default,Bačani,1583846247,"(45.79825555, 15.91174901)",HR
650,45.64512449,16.4786607,default,Ljilja Paradise Nails,1583846904,"(45.64512449, 16.4786607)",HR
651,43.51331569,16.50322437,shopping,Alo Alo - Smartphone shop & Service,1583847061,"(43.51331569, 16.50322437)",HR
652,43.51894088,16.48344576,shopping,Alo Alo - Mall of Split,1583847219,"(43.51894088, 16.48344576)",HR
653,45.81083176,15.95347345,cafe,Primarius craft pivovara,1583847240,"(45.81083176, 15.95347345)",HR
654,43.71258791,15.91193676,shopping,Alo Alo Tele2 centar,1583847639,"(43.71258791, 15.91193676)",HR
655,46.28064443,14.52616274,default,Terasa Krvavec,1583847644,"(46.28064443, 14.52616274)",SI
656,45.82387241,16.06406093,transport,Taxi,1583847660,"(45.82387241, 16.06406093)",HR
657,43.71256465,15.911765099999998,shopping,Alo Alo Dalmare,1583847783,"(43.71256465, 15.911765099999998)",HR
658,46.05405039,14.50722635,default,Čevljarna Kopito,1583847881,"(46.05405039, 14.50722635)",SI
659,45.87114907,15.82737207,food,Chubby okruglice štand,1583847981,"(45.87114907, 15.82737207)",HR
660,43.44239573,16.68269634,shopping,Alo Alo - PC Studenac,1583848080,"(43.44239573, 16.68269634)",HR
661,43.51484458,16.25202477,shopping,Alo Alo Trogir,1583848203,"(43.51484458, 16.25202477)",HR
662,44.03500487,16.19736671,shopping,Alo Alo Knin,1583848379,"(44.03500487, 16.19736671)",HR
663,43.50998546,16.44642591,shopping,Alo Alo,1583848513,"(43.50998546, 16.44642591)",HR
664,45.83700719,16.06978476,shopping,Marmat revolution,1583848399,"(45.83700719, 16.06978476)",HR
665,45.22951577,14.62478757,transport,VIP TAXI,1583848885,"(45.22951577, 14.62478757)",HR
666,45.51639903,18.72511804,default,Altera Vita,1583848828,"(45.51639903, 18.72511804)",HR
667,45.38093566,14.38365161,cafe,Infinity Caffe & Night bar,1583849073,"(45.38093566, 14.38365161)",HR
668,45.48031731,15.55705905,shopping,"KARIĆ Automobili, prodaja",1583849142,"(45.48031731, 15.55705905)",HR
669,46.055885700000005,14.56377804,default,Stipič Yacht,1583849151,"(46.055885700000005, 14.56377804)",SI
670,45.48036996,15.55704296,default,"KARIĆ Automobili, servis",1583849211,"(45.48036996, 15.55704296)",HR
671,46.05594154,14.56376195,default,Avtodomi Stipič ,1583849346,"(46.05594154, 14.56376195)",SI
672,45.32891078,14.43952203,default,Klub Mladih Rijeka,1583849364,"(45.32891078, 14.43952203)",HR
673,46.05595643,14.56383705,default,Avtoservis in vulkanizerstvo Stipič,1583849428,"(46.05595643, 14.56383705)",SI
674,45.81176654,15.97324669,food,Muzej čokolade Zagreb,1583849579,"(45.81176654, 15.97324669)",HR
675,45.75483592,16.08359277,shopping,MPS Velika Gorica,1583849657,"(45.75483592, 16.08359277)",HR
676,45.80926129,15.97239375,shopping,Octopus Piercing,1583849730,"(45.80926129, 15.97239375)",HR
677,46.00054281,14.02257264,default,Velo center,1583849974,"(46.00054281, 14.02257264)",SI
678,46.51317594,15.08326828,default,Velo center,1583850125,"(46.51317594, 15.08326828)",SI
679,45.54268998,13.73182654,default,Kalček ,1583848039,"(45.54268998, 13.73182654)",SI
680,45.5427576,13.73175144,default,Velocenter,1583850311,"(45.5427576, 13.73175144)",SI
681,46.10481714,14.536918400000001,sports,Velocenter,1583850446,"(46.10481714, 14.536918400000001)",SI
682,45.56493523,14.24639225,sports,Velocenter ,1583851411,"(45.56493523, 14.24639225)",SI
683,46.16442501,14.30693507,default,Bokal sport,1583852106,"(46.16442501, 14.30693507)",SI
684,46.16357419,14.56955552,default,Speak up,1583852549,"(46.16357419, 14.56955552)",SI
685,46.22222773,14.6075356,shopping,Zlata ptička,1583852738,"(46.22222773, 14.6075356)",SI
686,45.80935851,15.95414937,shopping,MOTO MONDO - Prodaja,1583852901,"(45.80935851, 15.95414937)",HR
687,45.80933234,15.95425665,default,MOTO MONDO - Servis,1583853003,"(45.80933234, 15.95425665)",HR
688,45.74123251,16.06630325,transport,Nirik Zagreb Airport Transfers,1583853087,"(45.74123251, 16.06630325)",HR
689,45.81959192,15.97627759,default,Salon Teuta,1583853201,"(45.81959192, 15.97627759)",HR
690,45.32352876,14.467191699999999,shopping,Orijent 1919 Fan shop,1583853323,"(45.32352876, 14.467191699999999)",HR
691,45.34765143,14.31912303,cafe,Kaokakao,1583853658,"(45.34765143, 14.31912303)",HR
692,45.32790381,14.44203794,cafe,Caffe Bar Iskra,1583853488,"(45.32790381, 14.44203794)",HR
693,45.33090957,14.43025231,cafe,Cafe 2020,1583853888,"(45.33090957, 14.43025231)",HR
694,45.32608217,14.44178581,shopping,4 elements,1583854000,"(45.32608217, 14.44178581)",HR
695,45.51061758,16.05323553,shopping,MPS Hotnja,1583854452,"(45.51061758, 16.05323553)",HR
696,45.67471753,15.57881176,shopping,MPS Hotnja,1583853634,"(45.67471753, 15.57881176)",HR
697,45.56280199,16.20813847,shopping,MPS Hotnja,1583853886,"(45.56280199, 16.20813847)",HR
698,45.76866802,15.80327511,shopping,MPS Hotnja,1583854573,"(45.76866802, 15.80327511)",HR
699,45.69198322,15.74197054,shopping,MPS Hotnja,1583854987,"(45.69198322, 15.74197054)",HR
700,45.81567002,15.875748399999999,shopping,MPS Hotnja,1583854668,"(45.81567002, 15.875748399999999)",HR
701,45.63170068,18.69955659,shopping,Unikatni nakit Vranješ,1583854306,"(45.63170068, 18.69955659)",HR
702,45.50767025,16.37249351,transport,FORTY-TWO TAXI,1583855379,"(45.50767025, 16.37249351)",HR
703,46.15095523,14.44610953,food,Restavracija Evergreen,1583855389,"(46.15095523, 14.44610953)",SI
704,45.32725512,14.44410324,cafe,Chocoland,1583855511,"(45.32725512, 14.44410324)",HR
705,45.36158412,14.39210057,default,Cip Cop Igraonica,1583855529,"(45.36158412, 14.39210057)",HR
706,45.32747009,14.44443047,cafe,Slon Slastičarna,1583855603,"(45.32747009, 14.44443047)",HR
707,45.32715706,14.44373846,shopping,Supermajice.hr,1583855689,"(45.32715706, 14.44373846)",HR
708,45.32774918,14.43803608,lodging,Hotel Molo Longo,1583855768,"(45.32774918, 14.43803608)",HR
709,45.32749649,14.44449484,default,My Travel,1583855787,"(45.32749649, 14.44449484)",HR
710,46.0882188,14.4760859,food,Restravracija in pizzerija Angel,1583855815,"(46.0882188, 14.4760859)",SI
711,46.04906534,14.50895905,cafe,Grajska kavarna,1583855695,"(46.04906534, 14.50895905)",SI
712,46.04890897,14.50886786,food,Restavracija Strelec,1583855491,"(46.04890897, 14.50886786)",SI
713,46.05069605,14.50614274,cafe,Lolita,1583855611,"(46.05069605, 14.50614274)",SI
714,46.05467954,14.49296236,cafe,Caffe Bienale,1583856002,"(46.05467954, 14.49296236)",SI
715,46.05871858,14.50184584,food,Pizzeria Kampus,1583856294,"(46.05871858, 14.50184584)",SI
716,46.05335795,14.5052737,cafe,Šport Caffe,1583856324,"(46.05335795, 14.5052737)",SI
717,46.04911002,14.50885177,nightlife,Vinoteka Strelec,1583858828,"(46.04911002, 14.50885177)",SI
718,46.10814588,14.46111917,food,Gostilnica in pizzerija Kaval,1583859114,"(46.10814588, 14.46111917)",SI
719,46.1082091,14.46141422,cafe,Kavarnica Kaval Club,1583859217,"(46.1082091, 14.46141422)",SI
720,46.10825001,14.46083486,nightlife,Biljardnica Kaval,1583859315,"(46.10825001, 14.46083486)",SI
721,46.09829669,14.53555584,food,Element Restavracija,1583859451,"(46.09829669, 14.53555584)",SI
722,46.04014027,14.51131403,cafe,Špica Caffe,1583859581,"(46.04014027, 14.51131403)",SI
723,46.05058063,14.56344008,cafe,Kavarna Mao,1583859711,"(46.05058063, 14.56344008)",SI
724,45.92069557,14.22888279,default,Menard RA,1583860094,"(45.92069557, 14.22888279)",SI
725,46.23258539,14.368411300000002,shopping,A1,1583860392,"(46.23258539, 14.368411300000002)",SI
726,46.24313402,14.378437400000001,shopping,A1,1583860541,"(46.24313402, 14.378437400000001)",SI
727,46.01986082,14.53709006,shopping,A1,1583860871,"(46.01986082, 14.53709006)",SI
728,46.02199154,14.53542709,shopping,A1,1583861073,"(46.02199154, 14.53542709)",SI
729,46.10452703,14.53553975,shopping,A1,1583861272,"(46.10452703, 14.53553975)",SI
730,46.23702326,14.40873563,default,Estetika Fabjan,1583861741,"(46.23702326, 14.40873563)",SI
731,46.55445591,15.65368295,shopping,GSM aparati,1583862059,"(46.55445591, 15.65368295)",SI
732,46.54645405,15.619211199999999,shopping,GSM aparati,1583861921,"(46.54645405, 15.619211199999999)",SI
733,46.41827491,15.87903678,shopping,GSM aparati,1583862293,"(46.41827491, 15.87903678)",SI
734,47.17840288,8.517971635,lodging,Hotel Zugertor,1583870275,"(47.17840288, 8.517971635)",CH
735,46.17718947,14.61071134,grocery,Žito trgovina,1583912622,"(46.17718947, 14.61071134)",SI
736,46.16443616,14.3070209,sports,Velocenter,1583912722,"(46.16443616, 14.3070209)",SI
737,45.5462704,13.72585058,grocery,Žito kruharna Koper,1583912971,"(45.5462704, 13.72585058)",SI
738,45.70890269,13.8732326,grocery,Žito trgovina Sežana,1583913333,"(45.70890269, 13.8732326)",SI
739,46.05302661,14.50629294,food,Okrepčevalnica Ajda,1583913347,"(46.05302661, 14.50629294)",SI
740,46.05346963,14.50457633,food,Fast Food Ajda 2,1583913613,"(46.05346963, 14.50457633)",SI
741,46.55417924,15.64619958,grocery,Žito kruharna Center Maribor,1583913800,"(46.55417924, 15.64619958)",SI
742,46.0574492,14.50969398,food,Fast food Ajda,1583913989,"(46.0574492, 14.50969398)",SI
743,46.55400955,15.65371513,grocery,Žito trgovina Europark Maribor,1583914104,"(46.55400955, 15.65371513)",SI
744,45.93324411,-1.23581171,food,sarl courdavault alain,1583914156,"(45.93324411, -1.23581171)",FR
745,45.82060506,15.18218279,grocery,Žito kiosk Ločna Novo mesto,1583914319,"(45.82060506, 15.18218279)",SI
746,46.56092589,15.6600666,grocery,Žito trgovina Intes Maribor,1583914433,"(46.56092589, 15.6600666)",SI
747,46.53634397,15.65701962,grocery,Žito trgovina Tezno Maribor,1583914691,"(46.53634397, 15.65701962)",SI
748,46.50839495,15.69534302,grocery,Žito trgovina Miklavž Maribor,1583915376,"(46.50839495, 15.69534302)",SI
749,45.65499808,15.60665309,shopping,MPS Hotnja,1583918410,"(45.65499808, 15.60665309)",HR
750,45.58617306,16.04735076,shopping,MPS Hotnja,1583917517,"(45.58617306, 16.04735076)",HR
751,45.68438727,15.6997633,shopping,MPS Hotnja,1583854231,"(45.68438727, 15.6997633)",HR
752,45.80626232,15.93934894,shopping,MPS Hotnja,1583855145,"(45.80626232, 15.93934894)",HR
753,45.71546903,15.59299529,shopping,MPS Hotnja,1583918832,"(45.71546903, 15.59299529)",HR
754,46.05372651,14.50670063,cafe,M Caffe,1583919318,"(46.05372651, 14.50670063)",SI
755,46.34022106,15.42704165,grocery,Žito trgovina,1583920096,"(46.34022106, 15.42704165)",SI
756,46.35692111,14.16101754,grocery,Žito trgovina Hlebček,1583920105,"(46.35692111, 14.16101754)",SI
757,46.35692851,14.16092634,cafe,Žito bar Hlebček,1583919924,"(46.35692851, 14.16092634)",SI
758,45.95426765,15.49974024,grocery,Žito kiosk,1583919727,"(45.95426765, 15.49974024)",SI
759,45.81656359,15.15407324,grocery,Žito trgovina Sezam,1583914255,"(45.81656359, 15.15407324)",SI
760,45.7932138,14.36310053,grocery,Žito delikatesa,1583913250,"(45.7932138, 14.36310053)",SI
761,45.77361845,14.21243548,grocery,Žito trgovina,1583913147,"(45.77361845, 14.21243548)",SI
762,45.91780336,14.22931194,grocery,Žito trgovina,1583913077,"(45.91780336, 14.22931194)",SI
763,45.96304997,14.286518099999999,grocery,Žito trgovina Kruhek,1583912915,"(45.96304997, 14.286518099999999)",SI
764,45.96621201,14.297794099999999,grocery,Žito trgovina Jazon,1583912818,"(45.96621201, 14.297794099999999)",SI
765,46.09928244,14.54027653,grocery,Žito center,1583912738,"(46.09928244, 14.54027653)",SI
766,46.06793467,14.54184294,food,Ajda burgers and more,1583922642,"(46.06793467, 14.54184294)",SI
767,46.24189115,15.27740121,shopping,Optimist Online shop,1583922444,"(46.24189115, 15.27740121)",SI
768,46.06973975,14.54836071,grocery,Žito Diskont,1583922841,"(46.06973975, 14.54836071)",SI
769,45.68247594,14.19746876,sports,Velocenter,1583913024,"(45.68247594, 14.19746876)",SI
770,46.23993588,15.27733684,sports,Velocenter,1583913157,"(46.23993588, 15.27733684)",SI
771,46.65390649,16.1981231,sports,Velocenter,1583914245,"(46.65390649, 16.1981231)",SI
772,46.41953967,15.87459505,sports,Velocenter ,1583919540,"(46.41953967, 15.87459505)",SI
773,46.05375257,14.5027256,shopping,Omara Koncept,1583922974,"(46.05375257, 14.5027256)",SI
774,46.13823672,14.59794402,default,TaRICH frizerski studio,1583923010,"(46.13823672, 14.59794402)",SI
775,46.24367197,15.27864575,shopping,Trgovina Optimist,1583923098,"(46.24367197, 15.27864575)",SI
776,46.06796817,14.54182148,shopping,Omara,1583923099,"(46.06796817, 14.54182148)",SI
777,45.88712556,13.90814424,sports,Velocenter,1583912909,"(45.88712556, 13.90814424)",SI
778,46.04639207,14.50817585,shopping,Esenca online store,1583923494,"(46.04639207, 14.50817585)",SI
779,46.04740108,14.50641632,grocery,Pekarna Osem,1583923546,"(46.04740108, 14.50641632)",SI
780,46.06720146,14.54252958,shopping,Svet Križarjenj,1583931729,"(46.06720146, 14.54252958)",SI
781,46.06583178,14.58529472,shopping,Vse za otroke online store,1583931962,"(46.06583178, 14.58529472)",SI
782,45.70329091,13.868318799999999,shopping,Azure Film,1583932315,"(45.70329091, 13.868318799999999)",SI
783,46.04762075,14.499936100000001,default,SalON/OFF,1583932548,"(46.04762075, 14.499936100000001)",SI
784,45.70972306,13.85857701,shopping,PIT STOP  vulkanizerstvo - hitri servis,1583932595,"(45.70972306, 13.85857701)",SI
785,46.04763936,14.49993074,default,SalON/OFF,1583932609,"(46.04763936, 14.49993074)",SI
786,45.70564733,13.86315286,shopping,SpinaliS trgovina,1583932789,"(45.70564733, 13.86315286)",SI
787,46.56046114,15.65024972,cafe,Moja Kavarna,1583932818,"(46.56046114, 15.65024972)",SI
788,45.70604068,13.8673532,shopping,Parketarstvo Valenčič,1583933013,"(45.70604068, 13.8673532)",SI
789,45.70793621,13.870384099999999,default,Valles parketi,1583932989,"(45.70793621, 13.870384099999999)",SI
790,45.70595826,13.86734247,food,Apetit okrepčevalnica - catering,1583933134,"(45.70595826, 13.86734247)",SI
791,46.04731172,14.54543173,default,Center užitka SpaLaLa,1583933421,"(46.04731172, 14.54543173)",SI
792,45.54406131,13.74118745,shopping,Sneakers Park,1583933627,"(45.54406131, 13.74118745)",SI
793,46.06805005,14.54557657,food,Burger King Citypark,1583933721,"(46.06805005, 14.54557657)",SI
794,45.57962909,13.737110500000002,shopping,Studio INN frizerski salon,1583933726,"(45.57962909, 13.737110500000002)",SI
795,46.23762806,15.25851846,cafe,LIFE caffe,1583933831,"(46.23762806, 15.25851846)",SI
796,46.05440033,14.500494,food,Zvezda Narodna galerija,1583933945,"(46.05440033, 14.500494)",SI
797,46.53289726,15.66562951,cafe,LIFE caffe,1583933951,"(46.53289726, 15.66562951)",SI
798,45.92681161,14.7237289,cafe,Breza Caffe,1583934087,"(45.92681161, 14.7237289)",SI
799,45.52744152,13.66529703,default,MWS nega in vzdrževanje plovil,1583934168,"(45.52744152, 13.66529703)",SI
800,46.01163519,8.958594202999999,food,Piadineria Romagna Mia,1583934289,"(46.01163519, 8.958594202999999)",CH
801,45.82735638,15.18409789,shopping,Omara,1583934712,"(45.82735638, 15.18409789)",SI
802,46.55877915,15.65061986,grocery,Žito trgovina City,1583934968,"(46.55877915, 15.65061986)",SI
803,46.53870931,15.63632905,grocery,Žito trgovina,1583935156,"(46.53870931, 15.63632905)",SI
804,46.22917511,15.26246667,grocery,Žito trgovina,1583935366,"(46.22917511, 15.26246667)",SI
805,46.55921441,15.64855456,grocery,Žito trgovina Štukelj,1583935611,"(46.55921441, 15.64855456)",SI
806,46.14129582,14.59841609,default,Bioenergija Draženko Drinić,1583940061,"(46.14129582, 14.59841609)",SI
807,5.611287771000001,-73.8209635,transport,Electripeña,1583961797,"(5.611287771000001, -73.8209635)",CO
808,5.616567734,-73.81584585,shopping,Eliteshop,1583965907,"(5.616567734, -73.81584585)",CO
809,46.35015283,15.73363423,shopping,Kmetijska trgovina Majšperk,1584005672,"(46.35015283, 15.73363423)",SI
810,47.05959076,7.623669505,default,Archventure GmbH,1584007011,"(47.05959076, 7.623669505)",CH
811,46.0679049,14.54203069,shopping,Katja Pro Boutique,1584027446,"(46.0679049, 14.54203069)",SI
812,46.02052389,14.53754067,cafe,Moj Lokal,1584091194,"(46.02052389, 14.53754067)",SI
813,51.74915237,-0.32604932789999996,shopping,Herts Hemp,1584101344,"(51.74915237, -0.32604932789999996)",GB
814,39.74502999,-8.812338071000001,shopping,MRCosmética,1584193024,"(39.74502999, -8.812338071000001)",PT
815,-12.07737019,-77.09368765,attraction,Lyder - Agencia Digital,1584104446,"(-12.07737019, -77.09368765)",PE
816,41.16339416,-8.58415246,default,Clinica dos Bits,1584143157,"(41.16339416, -8.58415246)",PT
817,2.943356993,-75.27093887,shopping,Emilianos Store,1584144418,"(2.943356993, -75.27093887)",CO
818,53.19112825,50.116826,default,Крипто Маркет,1584295653,"(53.19112825, 50.116826)",RU
819,55.59423119,37.6033473,default,Крипто Маркет,1584295932,"(55.59423119, 37.6033473)",RU
820,55.74727839,37.53958583,default,Крипто Маркет,1584296051,"(55.74727839, 37.53958583)",RU
821,55.76254718,37.59209543,default,Крипто Маркет,1584296157,"(55.76254718, 37.59209543)",RU
822,55.80641543,37.57103741,default,Крипто Маркет,1584296230,"(55.80641543, 37.57103741)",RU
823,55.7588377,37.62524486,default,Крипто Маркет,1584296283,"(55.7588377, 37.62524486)",RU
824,55.76372877,37.65419662,default,Крипто Маркет,1584296359,"(55.76372877, 37.65419662)",RU
825,57.01153365,40.96774936,default,Крипто Маркет,1584296428,"(57.01153365, 40.96774936)",RU
826,56.98115697,40.99367023,shopping,Крипто Маркет,1584296610,"(56.98115697, 40.99367023)",RU
827,56.98257175,40.982126,transport,Крипто Маркет,1584296650,"(56.98257175, 40.982126)",RU
828,56.99750549,40.96049666,lodging,Крипто Маркет,1584296742,"(56.99750549, 40.96049666)",RU
829,56.32321828,44.03049409,shopping,Крипто Маркет,1584301722,"(56.32321828, 44.03049409)",RU
830,56.32567523,44.01062965,lodging,Крипто Маркет,1584301784,"(56.32567523, 44.01062965)",RU
831,56.32766208,43.98639858,transport,Крипто Маркет,1584301871,"(56.32766208, 43.98639858)",RU
832,35.20572427,26.10548973,food,myloi.shop,1584522343,"(35.20572427, 26.10548973)",GR
833,54.18721695,45.16829789,shopping,Крипто Маркет,1584301955,"(54.18721695, 45.16829789)",RU
834,54.16720929,45.12969553,transport,Крипто Маркет,1584302013,"(54.16720929, 45.12969553)",RU
835,56.64022393,47.89441466,shopping,Крипто Маркет,1584302122,"(56.64022393, 47.89441466)",RU
836,56.63228353,47.92889982,lodging,Крипто Маркет,1584302178,"(56.63228353, 47.92889982)",RU
837,55.72629746,48.72047603,shopping,Крипто Маркет,1584302243,"(55.72629746, 48.72047603)",RU
838,55.82033206,49.1009903,shopping,Крипто Маркет,1584302368,"(55.82033206, 49.1009903)",RU
839,55.79205653,49.10283297,shopping,Крипто Маркет,1584303470,"(55.79205653, 49.10283297)",RU
840,51.5341569,46.02623463,shopping,Крипто Маркет,1584303586,"(51.5341569, 46.02623463)",RU
841,51.54591471,46.01842403,lodging,Крипто Маркет,1584303626,"(51.54591471, 46.01842403)",RU
842,48.70601515,44.50937033,shopping,Крипто Маркет,1584303682,"(48.70601515, 44.50937033)",RU
843,48.7349967,44.48904991,lodging,Крипто Маркет,1584303747,"(48.7349967, 44.48904991)",RU
844,48.71040469,44.43802357,transport,Крипто Маркет,1584303793,"(48.71040469, 44.43802357)",RU
845,43.58567562,39.72530186,shopping,Крипто Маркет,1584303884,"(43.58567562, 39.72530186)",RU
846,43.58431561,39.71588194,lodging,Крипто Маркет,1584303932,"(43.58431561, 39.71588194)",RU
847,43.57342669,39.74057436,transport,Крипто Маркет,1584303999,"(43.57342669, 39.74057436)",RU
848,43.67961248,40.20665109,shopping,Крипто Маркет,1584304069,"(43.67961248, 40.20665109)",RU
849,45.05882183,39.01720136,shopping,Крипто Маркет,1584304159,"(45.05882183, 39.01720136)",RU
850,45.06139661,39.01865244,transport,Крипто Маркет,1584304213,"(45.06139661, 39.01865244)",RU
851,44.73788587,37.77788401,shopping,Крипто Маркет,1584304296,"(44.73788587, 37.77788401)",RU
852,44.88476243,37.33109772,shopping,Крипто Маркет,1584304366,"(44.88476243, 37.33109772)",RU
853,44.89310466,37.32294917,transport,Крипто Маркет,1584304412,"(44.89310466, 37.32294917)",RU
854,53.356237899999996,58.97332191,shopping,Крипто Маркет,1584304579,"(53.356237899999996, 58.97332191)",RU
855,53.36203896,58.95042658,lodging,Крипто Маркет,1584304613,"(53.36203896, 58.95042658)",RU
856,54.740709499999994,55.98688066,shopping,Крипто Маркет,1584304696,"(54.740709499999994, 55.98688066)",RU
857,54.73526348,55.97050309,lodging,Крипто Маркет,1584304735,"(54.73526348, 55.97050309)",RU
858,54.74453846,55.95269322,transport,Крипто Маркет,1584304793,"(54.74453846, 55.95269322)",RU
859,40.22910761,-76.83230639,atm,Bitcoin ATM,1584395002,"(40.22910761, -76.83230639)",US
860,46.0124064,8.956491351,default,Miss Spettino,1584434530,"(46.0124064, 8.956491351)",CH
861,45.51292572,13.59437943,food,Restavracija Bungalow,1584441245,"(45.51292572, 13.59437943)",SI
862,45.51370009,13.59339774,cafe,Cacao ,1584441397,"(45.51370009, 13.59339774)",SI
863,46.0620166,14.54840362,cafe,Cacao,1584444783,"(46.0620166, 14.54840362)",SI
864,46.05143693,14.50662017,cafe,Cacao ,1584445254,"(46.05143693, 14.50662017)",SI
865,46.05482473,14.50429201,cafe,Cacao ,1584445467,"(46.05482473, 14.50429201)",SI
866,38.98868128,-77.09782362,shopping,JS Audio,1584447949,"(38.98868128, -77.09782362)",US
867,41.44603579,2.214807272,shopping,CONTROLIP TELEMATIC SOLUTIONS SL,1584538132,"(41.44603579, 2.214807272)",ES
868,4.154579568,-74.72372373,default,Bitcoins ,1584570698,"(4.154579568, -74.72372373)",CO
869,49.02556853,17.64586151,shopping,FantasyGROUP,1584623595,"(49.02556853, 17.64586151)",CZ
870,50.35092717,14.47836041,default,Prototech.cz,1584644541,"(50.35092717, 14.47836041)",CZ
871,33.46398642,-88.80925477,cafe,Strange Brew Coffee,1584650382,"(33.46398642, -88.80925477)",US
872,-22.87148963,-47.04136133,sports,ROBERTO MORAES SILVA,1584671409,"(-22.87148963, -47.04136133)",BR
873,-38.54986036,-58.74295235,default,Estudio Juridico Wagner,1584761089,"(-38.54986036, -58.74295235)",AR
874,-37.99852155,-57.54934788,default,Estudio Juridico Wagner,1584761289,"(-37.99852155, -57.54934788)",AR
875,37.78998222,14.61883051,food,AZ. Agricola biologica di Inzerilli Carmelo ,1584839508,"(37.78998222, 14.61883051)",IT
876,49.11542795,9.736161232,food,Alt Hall,1584869776,"(49.11542795, 9.736161232)",DE
877,49.14307455,9.220656753,atm,Tabak Sasse,1584869950,"(49.14307455, 9.220656753)",DE
878,46.70973594,-116.96044920000001,default,Steve Smallwood Illustrations,1584901273,"(46.70973594, -116.96044920000001)",US
879,46.4224241,15.87159634,shopping,Swat online store,1584948915,"(46.4224241, 15.87159634)",SI
880,46.24472931,13.58116686,default,Nutrishop.si online store,1584949641,"(46.24472931, 13.58116686)",SI
881,46.06381442,14.54569459,grocery,Kalček.si online store,1584954402,"(46.06381442, 14.54569459)",SI
882,45.33567623,14.40547943,default,Izdavački centar Sušak,1585052822,"(45.33567623, 14.40547943)",HR
883,45.33569131,14.40562963,default,Tiskara Sušak,1585052891,"(45.33569131, 14.40562963)",HR
884,45.34869574,14.42903996,default,Inćun,1585053075,"(45.34869574, 14.42903996)",HR
885,45.32421522,14.44132447,default,Gulet Adonis,1585053853,"(45.32421522, 14.44132447)",HR
886,45.34588698,14.36618507,cafe,Premier bar,1585054183,"(45.34588698, 14.36618507)",HR
887,45.32737581,14.44402814,default,Master's Barber shop,1585054443,"(45.32737581, 14.44402814)",HR
888,45.15802906,14.72145438,default,Mini Eko,1585054771,"(45.15802906, 14.72145438)",HR
889,45.15806689,14.72162604,default,Eko Motiv,1585054861,"(45.15806689, 14.72162604)",HR
890,45.37025262,14.34104204,default,Magic Project,1585055075,"(45.37025262, 14.34104204)",HR
891,46.06596577,14.51783717,shopping,Huda Čupca,1585060619,"(46.06596577, 14.51783717)",SI
892,46.38587674,15.55965006,shopping,K&M,1585061250,"(46.38587674, 15.55965006)",SI
893,46.045074,14.50494647,cafe,Mala Pražarna,1585061378,"(46.045074, 14.50494647)",SI
894,46.06584295,14.54953551,shopping,Garderoba online store,1585130713,"(46.06584295, 14.54953551)",SI
895,56.3246996,44.00539398,atm,Крипто Маркет,1585140241,"(56.3246996, 44.00539398)",RU
896,55.46387523,43.19436908,atm,Крипто Маркет,1585140317,"(55.46387523, 43.19436908)",RU
897,55.46362889,43.1889993,shopping,Крипто Маркет,1585140392,"(55.46362889, 43.1889993)",RU
898,56.99232173,40.97973347,atm,Крипто Маркет,1585140444,"(56.99232173, 40.97973347)",RU
899,55.68077839,37.58199692,atm,Крипто Маркет,1585140493,"(55.68077839, 37.58199692)",RU
900,55.75281545,37.63589859,atm,Крипто Маркет,1585140524,"(55.75281545, 37.63589859)",RU
901,55.75011948,37.56148338,shopping,Крипто Маркет,1585140581,"(55.75011948, 37.56148338)",RU
902,55.74691607,37.53628135,shopping,Крипто Маркет,1585140675,"(55.74691607, 37.53628135)",RU
903,55.42710183,37.54451036,atm,Крипто Маркет,1585140743,"(55.42710183, 37.54451036)",RU
904,55.43135111,37.5570631,transport,Крипто Маркет,1585140802,"(55.43135111, 37.5570631)",RU
905,55.41783461,37.54835129,shopping,Крипто Маркет,1585140865,"(55.41783461, 37.54835129)",RU
906,43.58564453,39.72304344,atm,Крипто Маркет,1585140976,"(43.58564453, 39.72304344)",RU
907,43.42923725,39.92611885,shopping,Крипто Маркет,1585141100,"(43.42923725, 39.92611885)",RU
908,55.79163129,49.11884308,atm,Крипто Маркет,1585141291,"(55.79163129, 49.11884308)",RU
909,55.81859615,49.08373833,atm,Крипто Маркет,1585141330,"(55.81859615, 49.08373833)",RU
910,55.76744835,49.11549568,shopping,Крипто Маркет,1585141385,"(55.76744835, 49.11549568)",RU
911,55.83093875,49.15514946,atm,Крипто Маркет,1585141438,"(55.83093875, 49.15514946)",RU
912,54.90272114,49.93985653,shopping,Крипто Маркет,1585205328,"(54.90272114, 49.93985653)",RU
913,55.36652729,50.62980652,shopping,Крипто Маркет,1585205417,"(55.36652729, 50.62980652)",RU
914,54.88766665,52.28668213,shopping,Крипто Маркет,1585205478,"(54.88766665, 52.28668213)",RU
915,55.73493945,52.3956871,shopping,Крипто Маркет,1585205527,"(55.73493945, 52.3956871)",RU
916,55.63594208,51.80980682,shopping,Крипто Маркет,1585205572,"(55.63594208, 51.80980682)",RU
917,53.62692797,55.93345642,shopping,Крипто Маркет,1585205653,"(53.62692797, 55.93345642)",RU
918,56.09162421,54.24937248,shopping,Крипто Маркет,1585205701,"(56.09162421, 54.24937248)",RU
919,56.84071028,53.22584152,shopping,Крипто Маркет,1585205761,"(56.84071028, 53.22584152)",RU
920,57.99809232,56.26407623,shopping,Крипто Маркет,1585205869,"(57.99809232, 56.26407623)",RU
921,64.54969422,40.53440094,shopping,Крипто Маркет,1585205961,"(64.54969422, 40.53440094)",RU
922,64.53678182,40.33475876,shopping,Крипто Маркет,1585206104,"(64.53678182, 40.33475876)",RU
923,64.55729124,39.84054565,shopping,Крипто Маркет,1585206148,"(64.55729124, 39.84054565)",RU
924,59.89031477,30.28038025,shopping,Крипто Маркет,1585206247,"(59.89031477, 30.28038025)",RU
925,60.00568044,30.25291443,atm,Крипто Маркет,1585206297,"(60.00568044, 30.25291443)",RU
926,46.06487894,14.55214262,cafe,Bar Na Vrtu,1589524024,"(46.06487894, 14.55214262)",SI
927,59.83291257,30.14511108,atm,Крипто Маркет,1585206349,"(59.83291257, 30.14511108)",RU
928,59.97631836,30.37685394,transport,Крипто Маркет,1585206388,"(59.97631836, 30.37685394)",RU
929,58.52498829,31.2610817,shopping,Крипто Маркет,1585206432,"(58.52498829, 31.2610817)",RU
930,58.60766303,49.6732235,shopping,Крипто Маркет,1585206537,"(58.60766303, 49.6732235)",RU
931,58.54550732,50.04341125,shopping,Крипто Маркет,1585206574,"(58.54550732, 50.04341125)",RU
932,66.08386715,76.65959358,shopping,Крипто Маркет,1585206708,"(66.08386715, 76.65959358)",RU
933,66.08264927,76.68534279,atm,Крипто Маркет,1585206755,"(66.08264927, 76.68534279)",RU
934,65.9108423,78.22184086,shopping,Крипто Маркет,1585206806,"(65.9108423, 78.22184086)",RU
935,51.82315311,107.60232930000001,shopping,Крипто Маркет,1585207666,"(51.82315311, 107.60232930000001)",RU
936,51.74084876,107.285614,shopping,Крипто Маркет,1585207703,"(51.74084876, 107.285614)",RU
937,52.27971148,104.30248259999999,shopping,Крипто Маркет,1585207786,"(52.27971148, 104.30248259999999)",RU
938,52.30637946,104.3117523,atm,Крипто Маркет,1585207852,"(52.30637946, 104.3117523)",RU
939,52.31267664,104.2482376,atm,Крипто Маркет,1585207886,"(52.31267664, 104.2482376)",RU
940,52.52055583,103.87144090000001,shopping,Крипто Маркет,1585208181,"(52.52055583, 103.87144090000001)",RU
941,52.55261088,103.8838863,atm,Крипто Маркет,1585208230,"(52.55261088, 103.8838863)",RU
942,56.29139456,101.68396,shopping,Крипто Маркет,1585208769,"(56.29139456, 101.68396)",RU
943,56.13416785,101.575985,shopping,Крипто Маркет,1585208798,"(56.13416785, 101.575985)",RU
944,55.93112543,98.00319672,shopping,Крипто Маркет,1585208850,"(55.93112543, 98.00319672)",RU
945,53.02295395,158.6466122,shopping,Крипто Маркет,1585241904,"(53.02295395, 158.6466122)",RU
946,53.03481356,158.644681,transport,Крипто Маркет,1585241931,"(53.03481356, 158.644681)",RU
947,53.01786519,158.650834,atm,Крипто Маркет,1585241973,"(53.01786519, 158.650834)",RU
948,59.56748419,150.79456330000002,shopping,Крипто Маркет,1585242052,"(59.56748419, 150.79456330000002)",RU
949,59.558527100000006,150.7965159,transport,Крипто Маркет,1585242083,"(59.558527100000006, 150.7965159)",RU
950,59.54908915,150.82730769999998,atm,Крипто Маркет,1585242118,"(59.54908915, 150.82730769999998)",RU
951,43.12310115,131.8804407,shopping,Крипто Маркет,1585242257,"(43.12310115, 131.8804407)",RU
952,43.10944265,131.878252,transport,Крипто Маркет,1585242284,"(43.10944265, 131.878252)",RU
953,43.12642134,131.8895388,atm,Крипто Маркет,1585242330,"(43.12642134, 131.8895388)",RU
954,43.17326056,131.9203949,atm,Крипто Маркет,1585242367,"(43.17326056, 131.9203949)",RU
955,43.35420505,132.18801499999998,shopping,Крипто Маркет,1585242396,"(43.35420505, 132.18801499999998)",RU
956,43.79117169,131.9543839,shopping,Крипто Маркет,1585242426,"(43.79117169, 131.9543839)",RU
957,45.46840782,133.3939576,shopping,Крипто Маркет,1585242481,"(45.46840782, 133.3939576)",RU
958,42.82247665,132.8832006,shopping,Крипто Маркет,1585242547,"(42.82247665, 132.8832006)",RU
959,50.5723356,136.9928169,shopping,Крипто Маркет,1585242842,"(50.5723356, 136.9928169)",RU
960,50.55445248,136.95281980000001,transport,Крипто Маркет,1585242878,"(50.55445248, 136.95281980000001)",RU
961,50.61145851,137.0552158,lodging,Крипто Маркет,1585242943,"(50.61145851, 137.0552158)",RU
962,56.02198872,92.83979416,shopping,Крипто Маркет,1585243130,"(56.02198872, 92.83979416)",RU
963,56.02601787,92.88579941,atm,Крипто Маркет,1585243179,"(56.02601787, 92.88579941)",RU
964,56.0014527,92.81404495,transport,Крипто Маркет,1585243239,"(56.0014527, 92.81404495)",RU
965,55.99463694,92.9649353,shopping,Крипто Маркет,1585243268,"(55.99463694, 92.9649353)",RU
966,53.69487703,91.69309616,shopping,Крипто Маркет,1585243318,"(53.69487703, 91.69309616)",RU
967,53.72271667,91.43890858,shopping,Крипто Маркет,1585243356,"(53.72271667, 91.43890858)",RU
968,53.70740207,91.43358707,default,Крипто Маркет,1585243389,"(53.70740207, 91.43358707)",RU
969,55.05256343,82.90961266,atm,Крипто Маркет,1585243743,"(55.05256343, 82.90961266)",RU
970,55.0490725,82.97132492,shopping,Крипто Маркет,1585243768,"(55.0490725, 82.97132492)",RU
971,54.95514577,82.89459229,transport,Крипто Маркет,1585243873,"(54.95514577, 82.89459229)",RU
972,53.35403508,83.75976563,shopping,Крипто Маркет,1585243950,"(53.35403508, 83.75976563)",RU
973,56.48448698,84.99589920000001,shopping,Крипто Маркет,1585244040,"(56.48448698, 84.99589920000001)",RU
974,56.43602092,84.93667603,transport,Крипто Маркет,1585244070,"(56.43602092, 84.93667603)",RU
975,55.35023152,86.05882645,shopping,Крипто Маркет,1585244122,"(55.35023152, 86.05882645)",RU
976,55.39675914,86.10895157,transport,Крипто Маркет,1585244156,"(55.39675914, 86.10895157)",RU
977,53.75206043,87.15162277,shopping,Крипто Маркет,1585244204,"(53.75206043, 87.15162277)",RU
978,54.99945362,73.36620569,shopping,Крипто Маркет,1585244300,"(54.99945362, 73.36620569)",RU
979,54.98056904,73.39244843,transport,Крипто Маркет,1585244334,"(54.98056904, 73.39244843)",RU
980,57.10511384,65.69343567,shopping,Крипто Маркет,1585244402,"(57.10511384, 65.69343567)",RU
981,46.01236169,15.29007196,cafe,Bar Todi,1589527417,"(46.01236169, 15.29007196)",SI
982,58.20150415,68.25046062,shopping,Крипто Маркет,1585244452,"(58.20150415, 68.25046062)",RU
983,55.16389207,61.41507626,atm,Крипто Маркет,1585244499,"(55.16389207, 61.41507626)",RU
984,55.15675769,61.38782501,shopping,Крипто Маркет,1585244539,"(55.15675769, 61.38782501)",RU
985,55.19626267,61.35048866,atm,Крипто Маркет,1585244579,"(55.19626267, 61.35048866)",RU
986,55.7701039,60.70684433,shopping,Крипто Маркет,1585244643,"(55.7701039, 60.70684433)",RU
987,56.81807513,60.55123329,shopping,Крипто Маркет,1585244691,"(56.81807513, 60.55123329)",RU
988,56.81290752,60.61182976,atm,Крипто Маркет,1585244748,"(56.81290752, 60.61182976)",RU
989,56.76533202,60.62427521,shopping,Крипто Маркет,1585244776,"(56.76533202, 60.62427521)",RU
990,57.91778829999999,59.9656105,shopping,Крипто Маркет,1585244823,"(57.91778829999999, 59.9656105)",RU
991,57.90677717,59.99230385,shopping,Крипто Маркет,1585244860,"(57.90677717, 59.99230385)",RU
992,49.19078093,16.62116647,default,Adam Kolek - Specialista na E-mail Marketing,1585314900,"(49.19078093, 16.62116647)",CZ
993,49.19081248,16.62127912,default,ko-bot | Vytváříme chatboty,1585315088,"(49.19081248, 16.62127912)",CZ
994,49.12477392,18.41250658,default,"DIGITAL STEEL, s.r.o.",1585428287,"(49.12477392, 18.41250658)",SK
995,29.80147519,-95.56697845,shopping,Dollmotions,1585468375,"(29.80147519, -95.56697845)",US
996,-33.03724257,-61.16261601,default,Gabriel Casafu,1585586442,"(-33.03724257, -61.16261601)",AR
997,45.92667355,13.64285231,shopping,Horti,1585666555,"(45.92667355, 13.64285231)",SI
998,45.91913193,14.23077643,shopping,Doget online store,1585212178,"(45.91913193, 14.23077643)",SI
999,46.04430325,14.47591424,default,Hram lepote,1585918544,"(46.04430325, 14.47591424)",SI
1000,46.04414314,14.4758606,default,Australian Gold,1585918803,"(46.04414314, 14.4758606)",SI
1001,41.33094373,-81.46052241,shopping,anthonymrugacz.com,1585957358,"(41.33094373, -81.46052241)",US
1002,20.55148336,-102.5103217,shopping,Mony's Boutique,1585997690,"(20.55148336, -102.5103217)",MX
1003,11.6855229,-84.45568085,default,Americantel,1585693061,"(11.6855229, -84.45568085)",NI
1004,37.26703897,-107.0110631,shopping,Bookends,1585715043,"(37.26703897, -107.0110631)",US
1005,46.35682484,14.16479945,default,"Meganet369, storitveni in svetovalni center",1585739243,"(46.35682484, 14.16479945)",SI
1006,40.0026678,-83.00059319,default,Block 11 Crypto,1585754196,"(40.0026678, -83.00059319)",US
1007,47.49450881,8.896254301,shopping,GOLDENGREEN GmbH,1585777763,"(47.49450881, 8.896254301)",CH
1008,66.08433689,76.67942047,default,WB Change,1585852829,"(66.08433689, 76.67942047)",RU
1009,55.72529751,37.57668614,default,WB Change,1585852981,"(55.72529751, 37.57668614)",RU
1010,4.9628910930000005,-73.91707778,shopping,Jewelry's World A&S,1585873604,"(4.9628910930000005, -73.91707778)",CO
1011,4.75809799,-74.02896078,shopping,INNOVA,1585888224,"(4.75809799, -74.02896078)",CO
1012,40.82024807,29.29216862,default,cengiz makina tesis degerleme,1586016378,"(40.82024807, 29.29216862)",TR
1013,-34.67437634,-58.67692896,shopping,JM repuestos Ituzaingo,1586166194,"(-34.67437634, -58.67692896)",AR
1014,48.97747775,14.47414935,default,Řezníček & Co.,1586193662,"(48.97747775, 14.47414935)",CZ
1015,46.05029024,14.48521614,default,Domas-Kont,1586342824,"(46.05029024, 14.48521614)",SI
1016,39.97674191,32.74522305,grocery,eyüp market,1586364745,"(39.97674191, 32.74522305)",TR
1017,41.89953003,12.49145508,default,National Office,1586386525,"(41.89953003, 12.49145508)",IT
1018,64.1126212,-21.848555800000003,transport,Magma Motors,1586506891,"(64.1126212, -21.848555800000003)",IS
1019,53.54404975,-2.426095605,shopping,Red Light Man,1586712928,"(53.54404975, -2.426095605)",GB
1020,4.4601114619999995,-75.15438616,lodging,VILLA LEONES ,1586734937,"(4.4601114619999995, -75.15438616)",CO
1021,41.52612196,-70.67358971,default,JSK Tree Care,1586802823,"(41.52612196, -70.67358971)",US
1022,9.95094987,-84.05302763,default,Buy RE CR,1586851159,"(9.95094987, -84.05302763)",CR
1023,46.05223736,14.50834215,shopping,Saloon online store,1586861662,"(46.05223736, 14.50834215)",SI
1024,-34.62621603,-58.47172201,default,TETRAKIS 3D,1588091494,"(-34.62621603, -58.47172201)",AR
1025,47.40852636,8.545126319,default,LAWGATE,1586861816,"(47.40852636, 8.545126319)",CH
1026,43.66926853,-79.32712555,default,EBMforbettertreatment,1586999661,"(43.66926853, -79.32712555)",CA
1027,37.95240831,23.69722545,default,Delta Strom,1587013350,"(37.95240831, 23.69722545)",GR
1028,46.10636438,14.52763259,grocery,Sadjevpisarni.si online store,1587031314,"(46.10636438, 14.52763259)",SI
1029,45.84891701,14.69520628,default,SVETANGELOV online store	,1587042257,"(45.84891701, 14.69520628)",SI
1030,42.52189751,27.43670762,food,Pantastic Pancakes,1587116758,"(42.52189751, 27.43670762)",BG
1031,42.67844839,23.32014441,food,American Pancakes Story,1587117266,"(42.67844839, 23.32014441)",BG
1032,43.07226184,25.60717285,food,Bar&Grill Kolata,1587118761,"(43.07226184, 25.60717285)",BG
1033,42.48416407,26.51066422,shopping,Slim Computers,1587119084,"(42.48416407, 26.51066422)",BG
1034,42.82446753,23.35563004,shopping,Green Mobile,1587119515,"(42.82446753, 23.35563004)",BG
1035,46.06563452,14.54306602,shopping,Nogavice.net online store,1587131526,"(46.06563452, 14.54306602)",SI
1036,41.37458654,2.142677307,nightlife,Harem Barcellona,1587209243,"(41.37458654, 2.142677307)",ES
1037,37.65999143,44.98622417,default,اروم نت,1587397884,"(37.65999143, 44.98622417)",IR
1038,37.55045095,45.06689429,default,اروم نت,1587398263,"(37.55045095, 45.06689429)",IR
1039,46.09484832,15.57314157,default,Puffi online store,1587466169,"(46.09484832, 15.57314157)",SI
1040,45.84861808,15.81110716,shopping,Oprema za kupaonice online store,1587630611,"(45.84861808, 15.81110716)",HR
1041,45.33232754,16.97102308,shopping,Apotekos online store,1587631573,"(45.33232754, 16.97102308)",HR
1042,35.72249736,139.763158,shopping,tokibakari,1587545239,"(35.72249736, 139.763158)",JP
1043,39.57350518,2.662677169,shopping,MUNDO-DIGITAL,1587551953,"(39.57350518, 2.662677169)",ES
1044,50.09988832,14.43670034,shopping,M0ST Napoje / Beverages,1587634140,"(50.09988832, 14.43670034)",CZ
1045,42.704215500000004,23.32338452,food,Fast Food Oops,1587635476,"(42.704215500000004, 23.32338452)",BG
1046,45.81330703,15.971165300000003,shopping,Zadruga za etično financiranje,1587745863,"(45.81330703, 15.971165300000003)",HR
1047,48.20578859,16.37564242,default,"Anita Posch, Bitcoin & Co.",1587883582,"(48.20578859, 16.37564242)",AT
1048,43.83415917,-79.51638758,default,Best Dance Classes for Adults & Kids in Vaughan,1588003449,"(43.83415917, -79.51638758)",CA
1049,6.078467611000001,-75.42436123,shopping,Salon de Belleza AMY Barber Shop,1588016916,"(6.078467611000001, -75.42436123)",CO
1050,43.64289232,10.79687834,food,Inserrata Organic Winery,1588537612,"(43.64289232, 10.79687834)",IT
1051,4.669692036,-74.05342519,food,ENTRIGADAS,1588106816,"(4.669692036, -74.05342519)",CO
1052,4.637900366,-74.06940043,food,ENTRIGADAS,1588107468,"(4.637900366, -74.06940043)",CO
1053,46.11855107,14.54931557,shopping,Anni online store,1588142825,"(46.11855107, 14.54931557)",SI
1054,46.07306316,14.49943185,default,KN Shop online store,1588244548,"(46.07306316, 14.49943185)",SI
1055,9.938110188,-84.11002994,default,Costa Rican Vacations,1588259964,"(9.938110188, -84.11002994)",CR
1056,37.49883142,-77.62802124,default,International Plumbing,1588604462,"(37.49883142, -77.62802124)",US
1057,43.20236826,27.91633487,shopping,Party Land,1588605623,"(43.20236826, 27.91633487)",BG
1058,10.07945615,-84.47318494,atm,Exchange $₡₿,1588305752,"(10.07945615, -84.47318494)",CR
1059,30.21432476,75.09396136,shopping,DARSHAN KUMAR NARESH KUMAR,1588354554,"(30.21432476, 75.09396136)",IN
1060,30.21446846,75.09397209,shopping,DKNK,1588354694,"(30.21446846, 75.09397209)",IN
1061,30.230293300000003,75.09578526,shopping,DARSHAN KUMAR NARESH KUMAR,1588355019,"(30.230293300000003, 75.09578526)",IN
1062,30.23017279,75.09557068,shopping,DKNK,1588355059,"(30.23017279, 75.09557068)",IN
1063,30.21989666,75.08923531,shopping,DARSHAN KUMAR NARESH KUMAR,1588355223,"(30.21989666, 75.08923531)",IN
1064,30.22021186,75.08923531,shopping,DKNK,1588355256,"(30.22021186, 75.08923531)",IN
1065,30.21424595,75.09402573,default,MAHESHWARI,1588355565,"(30.21424595, 75.09402573)",IN
1066,48.83141535,16.40217483,default,POLI-CARS,1588681943,"(48.83141535, 16.40217483)",CZ
1067,49.56981129,0.9446418284999999,default,Pavilly Lavage,1588687656,"(49.56981129, 0.9446418284999999)",FR
1068,37.19504001,40.59109211,shopping,mardinbilişim,1588368319,"(37.19504001, 40.59109211)",TR
1069,10.39812736,-75.52139282,grocery,Detodito,1588724300,"(10.39812736, -75.52139282)",CO
1070,10.39414899,-75.51916122,default,Ednas Ship Chandler,1588728055,"(10.39414899, -75.51916122)",CO
1071,40.28531632,-74.56402123,atm,Bitcoin ATM,1588860184,"(40.28531632, -74.56402123)",US
1072,45.33134704,14.44609344,default,International company marine & hotel resort,1588862660,"(45.33134704, 14.44609344)",HR
1073,1.3432881319999999,103.7760079,default,Economics Tuition in Bukit Timah Singapore | JC Economics Education Centre Pte Ltd,1588863648,"(1.3432881319999999, 103.7760079)",SG
1074,46.1929255,7.338142991000001,nightlife,Bar Le Barlouca,1588906315,"(46.1929255, 7.338142991000001)",CH
1075,44.49236502,11.32566512,default,Ambulatorio Veterinario Guidotti,1588951430,"(44.49236502, 11.32566512)",IT
1076,28.47347295,-81.36572778,food,Grassdogs LLC,1588964116,"(28.47347295, -81.36572778)",US
1077,4.7161151210000005,-74.10905421,sports,La Tienda del Pana,1589347616,"(4.7161151210000005, -74.10905421)",CO
1078,43.08208516,25.63211739,food,Doner and Burger Express,1589369964,"(43.08208516, 25.63211739)",BG
1079,51.04150858,2.37452209,default,Céline Gasperini Psychologue,1589030246,"(51.04150858, 2.37452209)",FR
1080,36.84014619,-2.464247346,food,Milestone Hamburgueseria,1589127190,"(36.84014619, -2.464247346)",ES
1081,46.04649632,14.51744556,default,Iccounting Slovenia,1589200687,"(46.04649632, 14.51744556)",SI
1082,46.05586708,14.50944722,default,ID Factory hair group Ladies only,1589201244,"(46.05586708, 14.50944722)",SI
1083,46.05580008,14.50944185,default,ID Factory hair group Unisex - Barber,1589201120,"(46.05580008, 14.50944185)",SI
1084,46.07869352,14.48410034,cafe,Zvezda,1589201643,"(46.07869352, 14.48410034)",SI
1085,-31.32838273,-64.26624835,food,Los Terneros,1589228489,"(-31.32838273, -64.26624835)",AR
1086,-22.42955507,-46.84009194,default,Nectho,1589254362,"(-22.42955507, -46.84009194)",BR
1087,22.30095892,114.1742027,atm,Easy Coin HK,1589272870,"(22.30095892, 114.1742027)",HK
1088,45.95591234,14.73734379,default,Računalniški mojster,1589275605,"(45.95591234, 14.73734379)",SI
1089,41.11216566,1.142283082,food,La Pepa Chuches,1589285311,"(41.11216566, 1.142283082)",ES
1090,46.24431751,15.259296300000003,shopping,InfinitiCUP online store,1589296453,"(46.24431751, 15.259296300000003)",SI
1091,46.00223084,8.949587345,shopping,Orologeria Somazzi,1589296794,"(46.00223084, 8.949587345)",CH
1092,43.89910614,-78.91815305,default,Sheridan Home Improvements,1589304309,"(43.89910614, -78.91815305)",CA
1093,42.86100801,25.32480597,shopping,Vesta V i S,1589370739,"(42.86100801, 25.32480597)",BG
1094,42.15843287,24.73887205,shopping,Vesta V i S,1589370329,"(42.15843287, 24.73887205)",BG
1095,42.479998200000004,26.51373267,default,SDK,1589371077,"(42.479998200000004, 26.51373267)",BG
1096,46.25296472,14.45582449,transport,Avtoservis Selan,1589371328,"(46.25296472, 14.45582449)",SI
1097,46.019797499999996,14.54229891,cafe,Coffee shop P,1589527617,"(46.019797499999996, 14.54229891)",SI
1098,36.7173523,-4.421144128,default,PM Abogados,1589653233,"(36.7173523, -4.421144128)",ES
1099,46.07525136,6.564878225,shopping,CITADEL Vault,1589811913,"(46.07525136, 6.564878225)",FR
1100,20.02083498,-75.80420494,lodging,Casa Piñol,1589808399,"(20.02083498, -75.80420494)",CU
